[
    {
        "id_localidade": "SBGR",
        "validade_inicial": "2023-09-01 00:00:00",
        "mens": "METAR SBGR 010000Z 09001KT CAVOK 16/10 Q1022=",
        "recebimento": "2023-08-31 23:57:49"
    },
    {
        "id_localidade": "SBGR",
        "validade_inicial": "2023-09-01 01:00:00",
        "mens": "METAR SBGR 010100Z 14001KT CAVOK 14/10 Q1022=",
        "recebimento": "2023-09-01 00:57:05"
    },
    {
        "id_localidade": "SBGR",
        "validade_inicial": "2023-09-01 02:00:00",
        "mens": "METAR SBGR 010200Z 07003KT CAVOK 14/10 Q1022=",
        "recebimento": "2023-09-01 01:55:15"
    },
    {
        "id_localidade": "SBGR",
        "validade_inicial": "2023-09-01 03:00:00",
        "mens": "METAR SBGR 010300Z 13002KT CAVOK 13/11 Q1022=",
        "recebimento": "2023-09-01 03:02:17"
    },
    {
        "id_localidade": "SBGR",
        "validade_inicial": "2023-09-01 04:00:00",
        "mens": "METAR SBGR 010400Z 08001KT CAVOK 12/10 Q1022=",
        "recebimento": "2023-09-01 03:55:53"
    },
    {
        "id_localidade": "SBGR",
        "validade_inicial": "2023-09-01 05:00:00",
        "mens": "METAR SBGR 010500Z 00000KT CAVOK 11/10 Q1021=",
        "recebimento": "2023-09-01 04:56:00"
    },
    {
        "id_localidade": "SBGR",
        "validade_inicial": "2023-09-01 06:00:00",
        "mens": "METAR SBGR 010600Z 09002KT CAVOK 11/10 Q1021=",
        "recebimento": "2023-09-01 05:56:16"
    },
    {
        "id_localidade": "SBGR",
        "validade_inicial": "2023-09-01 07:00:00",
        "mens": "METAR SBGR 010700Z 10002KT CAVOK 10/09 Q1020=",
        "recebimento": "2023-09-01 06:55:09"
    },
    {
        "id_localidade": "SBGR",
        "validade_inicial": "2023-09-01 08:00:00",
        "mens": "METAR SBGR 010800Z 08001KT CAVOK 10/09 Q1020=",
        "recebimento": "2023-09-01 07:56:56"
    },
    {
        "id_localidade": "SBGR",
        "validade_inicial": "2023-09-01 09:00:00",
        "mens": "METAR COR SBGR 010900Z 08003KT 7000 NSC 10/08 Q1021=",
        "recebimento": "2023-09-01 08:59:37"
    },
    {
        "id_localidade": "SBGR",
        "validade_inicial": "2023-09-01 10:00:00",
        "mens": "METAR SBGR 011000Z 07008KT 8000 FEW005 11/10 Q1021=",
        "recebimento": "2023-09-01 09:59:09"
    },
    {
        "id_localidade": "SBGR",
        "validade_inicial": "2023-09-01 10:40:00",
        "mens": "SPECI SBGR 011040Z 07009KT 8000 BKN006 13/12 Q1022=",
        "recebimento": "2023-09-01 10:44:37"
    },
    {
        "id_localidade": "SBGR",
        "validade_inicial": "2023-09-01 11:00:00",
        "mens": "METAR SBGR 011100Z 07009KT 7000 BKN006 14/13 Q1022=",
        "recebimento": "2023-09-01 10:58:31"
    },
    {
        "id_localidade": "SBGR",
        "validade_inicial": "2023-09-01 12:00:00",
        "mens": "METAR SBGR 011200Z 08014KT 8000 3500E SCT007 16/14 Q1022=",
        "recebimento": "2023-09-01 12:00:48"
    },
    {
        "id_localidade": "SBGR",
        "validade_inicial": "2023-09-01 13:00:00",
        "mens": "METAR SBGR 011300Z 07014KT 9999 FEW011 18/14 Q1022=",
        "recebimento": "2023-09-01 12:58:47"
    },
    {
        "id_localidade": "SBGR",
        "validade_inicial": "2023-09-01 14:00:00",
        "mens": "METAR SBGR 011400Z 08009KT CAVOK 20/14 Q1022=",
        "recebimento": "2023-09-01 13:58:36"
    },
    {
        "id_localidade": "SBGR",
        "validade_inicial": "2023-09-01 15:00:00",
        "mens": "METAR SBGR 011500Z 08008KT CAVOK 23/14 Q1021=",
        "recebimento": "2023-09-01 14:59:31"
    },
    {
        "id_localidade": "SBGR",
        "validade_inicial": "2023-09-01 16:00:00",
        "mens": "METAR SBGR 011600Z 09007KT 9999 FEW030 25/15 Q1020=",
        "recebimento": "2023-09-01 15:59:53"
    },
    {
        "id_localidade": "SBGR",
        "validade_inicial": "2023-09-01 17:00:00",
        "mens": "METAR SBGR 011700Z 06006KT CAVOK 26/15 Q1018=",
        "recebimento": "2023-09-01 16:55:56"
    },
    {
        "id_localidade": "SBGR",
        "validade_inicial": "2023-09-01 18:00:00",
        "mens": "METAR SBGR 011800Z 09006KT CAVOK 27/15 Q1018=",
        "recebimento": "2023-09-01 17:56:47"
    },
    {
        "id_localidade": "SBGR",
        "validade_inicial": "2023-09-01 19:00:00",
        "mens": "METAR SBGR 011900Z 08006KT CAVOK 27/15 Q1017=",
        "recebimento": "2023-09-01 18:56:40"
    },
    {
        "id_localidade": "SBGR",
        "validade_inicial": "2023-09-01 20:00:00",
        "mens": "METAR SBGR 012000Z 15006KT CAVOK 25/17 Q1018=",
        "recebimento": "2023-09-01 19:57:06"
    },
    {
        "id_localidade": "SBGR",
        "validade_inicial": "2023-09-01 21:00:00",
        "mens": "METAR SBGR 012100Z 12007KT CAVOK 23/16 Q1018=",
        "recebimento": "2023-09-01 20:55:20"
    },
    {
        "id_localidade": "SBGR",
        "validade_inicial": "2023-09-01 22:00:00",
        "mens": "METAR SBGR 012200Z 10003KT CAVOK 21/15 Q1018=",
        "recebimento": "2023-09-01 21:55:46"
    },
    {
        "id_localidade": "SBGR",
        "validade_inicial": "2023-09-01 23:00:00",
        "mens": "METAR SBGR 012300Z 12002KT CAVOK 18/16 Q1019=",
        "recebimento": "2023-09-01 22:55:35"
    },
    {
        "id_localidade": "SBGR",
        "validade_inicial": "2023-09-02 00:00:00",
        "mens": "METAR SBGR 020000Z 14002KT 8000 NSC 17/16 Q1019=",
        "recebimento": "2023-09-01 23:55:40"
    },
    {
        "id_localidade": "SBGR",
        "validade_inicial": "2023-09-02 01:00:00",
        "mens": "METAR SBGR 020100Z 00000KT CAVOK 17/16 Q1019=",
        "recebimento": "2023-09-02 00:57:36"
    },
    {
        "id_localidade": "SBGR",
        "validade_inicial": "2023-09-02 02:00:00",
        "mens": "METAR SBGR 020200Z 09003KT CAVOK 17/15 Q1019=",
        "recebimento": "2023-09-02 01:56:06"
    },
    {
        "id_localidade": "SBGR",
        "validade_inicial": "2023-09-02 03:00:00",
        "mens": "METAR SBGR 020300Z 09003KT CAVOK 17/15 Q1019=",
        "recebimento": "2023-09-02 02:57:35"
    },
    {
        "id_localidade": "SBGR",
        "validade_inicial": "2023-09-02 04:00:00",
        "mens": "METAR SBGR 020400Z 08007KT CAVOK 17/16 Q1018=",
        "recebimento": "2023-09-02 03:56:05"
    },
    {
        "id_localidade": "SBGR",
        "validade_inicial": "2023-09-02 05:00:00",
        "mens": "METAR SBGR 020500Z 07008KT CAVOK 17/16 Q1018=",
        "recebimento": "2023-09-02 04:57:56"
    },
    {
        "id_localidade": "SBGR",
        "validade_inicial": "2023-09-02 06:00:00",
        "mens": "METAR SBGR 020600Z 08008KT CAVOK 17/16 Q1018=",
        "recebimento": "2023-09-02 05:57:04"
    },
    {
        "id_localidade": "SBGR",
        "validade_inicial": "2023-09-02 07:00:00",
        "mens": "METAR SBGR 020700Z 08010KT CAVOK 17/16 Q1017=",
        "recebimento": "2023-09-02 06:59:24"
    },
    {
        "id_localidade": "SBGR",
        "validade_inicial": "2023-09-02 08:00:00",
        "mens": "METAR SBGR 020800Z 08010KT 8000 NSC 16/16 Q1018=",
        "recebimento": "2023-09-02 07:57:11"
    },
    {
        "id_localidade": "SBGR",
        "validade_inicial": "2023-09-02 09:00:00",
        "mens": "METAR SBGR 020900Z 08009KT 8000 NSC 16/16 Q1018=",
        "recebimento": "2023-09-02 08:56:14"
    },
    {
        "id_localidade": "SBGR",
        "validade_inicial": "2023-09-02 10:00:00",
        "mens": "METAR SBGR 021000Z 08010KT 5000 BR FEW004 16/16 Q1018=",
        "recebimento": "2023-09-02 09:55:48"
    },
    {
        "id_localidade": "SBGR",
        "validade_inicial": "2023-09-02 11:00:00",
        "mens": "METAR SBGR 021100Z 08012KT 6000 FEW005 17/17 Q1019=",
        "recebimento": "2023-09-02 10:55:50"
    },
    {
        "id_localidade": "SBGR",
        "validade_inicial": "2023-09-02 12:00:00",
        "mens": "METAR SBGR 021200Z 07012KT 8000 NSC 19/17 Q1018=",
        "recebimento": "2023-09-02 11:56:34"
    },
    {
        "id_localidade": "SBGR",
        "validade_inicial": "2023-09-02 13:00:00",
        "mens": "METAR SBGR 021300Z 08011KT CAVOK 23/17 Q1018=",
        "recebimento": "2023-09-02 12:55:17"
    },
    {
        "id_localidade": "SBGR",
        "validade_inicial": "2023-09-02 14:00:00",
        "mens": "METAR SBGR 021400Z 08011KT CAVOK 24/18 Q1018=",
        "recebimento": "2023-09-02 13:55:13"
    },
    {
        "id_localidade": "SBGR",
        "validade_inicial": "2023-09-02 15:00:00",
        "mens": "METAR SBGR 021500Z 06009KT CAVOK 27/18 Q1017=",
        "recebimento": "2023-09-02 14:56:31"
    },
    {
        "id_localidade": "SBGR",
        "validade_inicial": "2023-09-02 16:00:00",
        "mens": "METAR SBGR 021600Z 04006KT CAVOK 29/17 Q1017=",
        "recebimento": "2023-09-02 15:56:38"
    },
    {
        "id_localidade": "SBGR",
        "validade_inicial": "2023-09-02 17:00:00",
        "mens": "METAR SBGR 021700Z 35009G19KT 9999 SCT045 30/17 Q1015=",
        "recebimento": "2023-09-02 16:57:27"
    },
    {
        "id_localidade": "SBGR",
        "validade_inicial": "2023-09-02 18:00:00",
        "mens": "METAR SBGR 021800Z 36008KT 9999 SCT045 30/17 Q1015=",
        "recebimento": "2023-09-02 17:55:57"
    },
    {
        "id_localidade": "SBGR",
        "validade_inicial": "2023-09-02 19:00:00",
        "mens": "METAR SBGR 021900Z 36009KT 9999 SCT045 29/17 Q1015=",
        "recebimento": "2023-09-02 18:55:56"
    },
    {
        "id_localidade": "SBGR",
        "validade_inicial": "2023-09-02 20:00:00",
        "mens": "METAR SBGR 022000Z 01006KT 9999 SCT040 29/17 Q1015=",
        "recebimento": "2023-09-02 19:55:51"
    },
    {
        "id_localidade": "SBGR",
        "validade_inicial": "2023-09-02 21:00:00",
        "mens": "METAR SBGR 022100Z 07007KT 9999 VCTS FEW040CB BKN070 26/19 Q1015=",
        "recebimento": "2023-09-02 21:01:10"
    },
    {
        "id_localidade": "SBGR",
        "validade_inicial": "2023-09-02 22:00:00",
        "mens": "METAR SBGR 022200Z 21007KT 8000 TS VCSH FEW040CB OVC070 20/18 Q1017=",
        "recebimento": "2023-09-02 21:57:01"
    },
    {
        "id_localidade": "SBGR",
        "validade_inicial": "2023-09-02 22:30:00",
        "mens": "SPECI SBGR 022230Z 24009KT 9999 -TSRA BKN009 FEW040CB 20/18 Q1019=",
        "recebimento": "2023-09-02 22:37:03"
    },
    {
        "id_localidade": "SBGR",
        "validade_inicial": "2023-09-02 23:00:00",
        "mens": "METAR SBGR 022300Z 22007KT 9000 -TSRA BKN009 FEW040CB 19/18 Q1018=",
        "recebimento": "2023-09-02 22:55:36"
    },
    {
        "id_localidade": "SBGR",
        "validade_inicial": "2023-09-03 00:00:00",
        "mens": "METAR SBGR 030000Z 27005KT 5000 TSRA BKN009 FEW040CB 19/19 Q1020=",
        "recebimento": "2023-09-02 23:59:10"
    },
    {
        "id_localidade": "SBGR",
        "validade_inicial": "2023-09-03 01:00:00",
        "mens": "METAR SBGR 030100Z 15001KT 8000 -TSRA SCT007 FEW050CB BKN100 19/19 Q1019 RERA=",
        "recebimento": "2023-09-03 01:01:03"
    },
    {
        "id_localidade": "SBGR",
        "validade_inicial": "2023-09-03 01:20:00",
        "mens": "SPECI SBGR 030120Z 35003KT 8000 -RA VCTS BKN007 FEW050CB BKN100 20/19 Q1019 RETS=",
        "recebimento": "2023-09-03 01:21:17"
    },
    {
        "id_localidade": "SBGR",
        "validade_inicial": "2023-09-03 01:45:00",
        "mens": "SPECI COR SBGR 030145Z 29012KT 7000 TSRA BKN007 FEW050CB BKN100 19/19 Q1020=",
        "recebimento": "2023-09-03 01:48:14"
    },
    {
        "id_localidade": "SBGR",
        "validade_inicial": "2023-09-03 02:00:00",
        "mens": "METAR SBGR 030200Z 15006KT 4500 TSRA SCT009 FEW050CB BKN080 19/19 Q1019=",
        "recebimento": "2023-09-03 01:59:33"
    },
    {
        "id_localidade": "SBGR",
        "validade_inicial": "2023-09-03 02:30:00",
        "mens": "SPECI SBGR 030230Z 20005KT 8000 -TSRA BKN011 BKN030 FEW050CB 19/19 Q1020 RERA=",
        "recebimento": "2023-09-03 02:36:23"
    },
    {
        "id_localidade": "SBGR",
        "validade_inicial": "2023-09-03 03:00:00",
        "mens": "METAR SBGR 030300Z 22005KT 3000 +TSRA BKN009 FEW050CB 19/19 Q1021=",
        "recebimento": "2023-09-03 02:56:42"
    },
    {
        "id_localidade": "SBGR",
        "validade_inicial": "2023-09-03 04:00:00",
        "mens": "METAR SBGR 030400Z 26008KT 4500 RA VCTS BKN009 BKN025 FEW050CB 19/18 Q1022 RETSRA=",
        "recebimento": "2023-09-03 04:04:36"
    },
    {
        "id_localidade": "SBGR",
        "validade_inicial": "2023-09-03 04:35:00",
        "mens": "SPECI SBGR 030435Z 07005KT 7000 RA FEW007 BKN070 19/18 Q1020=",
        "recebimento": "2023-09-03 04:37:14"
    },
    {
        "id_localidade": "SBGR",
        "validade_inicial": "2023-09-03 05:00:00",
        "mens": "METAR SBGR 030500Z 08005KT 8000 RA FEW007 BKN100 19/19 Q1019=",
        "recebimento": "2023-09-03 04:59:59"
    },
    {
        "id_localidade": "SBGR",
        "validade_inicial": "2023-09-03 05:30:00",
        "mens": "SPECI SBGR 030530Z 07010KT 9999 -RA FEW007 BKN100 18/18 Q1017 RERA=",
        "recebimento": "2023-09-03 05:33:04"
    },
    {
        "id_localidade": "SBGR",
        "validade_inicial": "2023-09-03 06:00:00",
        "mens": "METAR SBGR 030600Z 07011KT 9999 FEW007 18/18 Q1017 RERA=",
        "recebimento": "2023-09-03 05:59:36"
    },
    {
        "id_localidade": "SBGR",
        "validade_inicial": "2023-09-03 07:00:00",
        "mens": "METAR SBGR 030700Z 05008KT 9999 FEW009 19/18 Q1017=",
        "recebimento": "2023-09-03 06:57:28"
    },
    {
        "id_localidade": "SBGR",
        "validade_inicial": "2023-09-03 08:00:00",
        "mens": "METAR SBGR 030800Z 08007KT 9999 FEW009 18/18 Q1018=",
        "recebimento": "2023-09-03 07:59:46"
    },
    {
        "id_localidade": "SBGR",
        "validade_inicial": "2023-09-03 09:00:00",
        "mens": "METAR SBGR 030900Z 06009KT 9999 FEW005 BKN100 18/18 Q1018=",
        "recebimento": "2023-09-03 08:59:51"
    },
    {
        "id_localidade": "SBGR",
        "validade_inicial": "2023-09-03 10:00:00",
        "mens": "METAR SBGR 031000Z 07008KT 9999 2500E SCT003 SCT100 18/18 Q1019=",
        "recebimento": "2023-09-03 09:55:29"
    },
    {
        "id_localidade": "SBGR",
        "validade_inicial": "2023-09-03 11:00:00",
        "mens": "METAR SBGR 031100Z 08008KT 9999 4000E FEW004 19/19 Q1019=",
        "recebimento": "2023-09-03 10:58:36"
    },
    {
        "id_localidade": "SBGR",
        "validade_inicial": "2023-09-03 12:00:00",
        "mens": "METAR SBGR 031200Z 08006KT CAVOK 21/19 Q1019=",
        "recebimento": "2023-09-03 11:58:02"
    },
    {
        "id_localidade": "SBGR",
        "validade_inicial": "2023-09-03 13:00:00",
        "mens": "METAR SBGR 031300Z 05005KT CAVOK 25/19 Q1019=",
        "recebimento": "2023-09-03 12:56:20"
    },
    {
        "id_localidade": "SBGR",
        "validade_inicial": "2023-09-03 14:00:00",
        "mens": "METAR SBGR 031400Z 34008KT CAVOK 28/18 Q1018=",
        "recebimento": "2023-09-03 14:03:45"
    },
    {
        "id_localidade": "SBGR",
        "validade_inicial": "2023-09-03 15:00:00",
        "mens": "METAR SBGR 031500Z 34010KT CAVOK 29/18 Q1018=",
        "recebimento": "2023-09-03 14:55:29"
    },
    {
        "id_localidade": "SBGR",
        "validade_inicial": "2023-09-03 16:00:00",
        "mens": "METAR SBGR 031600Z 33012KT CAVOK 30/18 Q1017=",
        "recebimento": "2023-09-03 15:55:43"
    },
    {
        "id_localidade": "SBGR",
        "validade_inicial": "2023-09-03 17:00:00",
        "mens": "METAR SBGR 031700Z 32009KT CAVOK 32/17 Q1016=",
        "recebimento": "2023-09-03 16:56:23"
    },
    {
        "id_localidade": "SBGR",
        "validade_inicial": "2023-09-03 18:00:00",
        "mens": "METAR SBGR 031800Z 33010KT CAVOK 31/18 Q1015=",
        "recebimento": "2023-09-03 17:56:01"
    },
    {
        "id_localidade": "SBGR",
        "validade_inicial": "2023-09-03 19:00:00",
        "mens": "METAR SBGR 031900Z 33010KT CAVOK 31/18 Q1015=",
        "recebimento": "2023-09-03 18:55:53"
    },
    {
        "id_localidade": "SBGR",
        "validade_inicial": "2023-09-03 20:00:00",
        "mens": "METAR SBGR 032000Z 31006KT CAVOK 31/18 Q1016=",
        "recebimento": "2023-09-03 19:56:32"
    },
    {
        "id_localidade": "SBGR",
        "validade_inicial": "2023-09-03 21:00:00",
        "mens": "METAR SBGR 032100Z 31004KT CAVOK 29/18 Q1016=",
        "recebimento": "2023-09-03 20:57:21"
    },
    {
        "id_localidade": "SBGR",
        "validade_inicial": "2023-09-03 22:00:00",
        "mens": "METAR SBGR 032200Z 33004KT CAVOK 27/20 Q1017=",
        "recebimento": "2023-09-03 21:55:26"
    },
    {
        "id_localidade": "SBGR",
        "validade_inicial": "2023-09-03 23:00:00",
        "mens": "METAR SBGR 032300Z 05004KT CAVOK 25/20 Q1017=",
        "recebimento": "2023-09-03 22:59:41"
    },
    {
        "id_localidade": "SBGR",
        "validade_inicial": "2023-09-04 00:00:00",
        "mens": "METAR SBGR 040000Z 01006KT CAVOK 26/19 Q1018=",
        "recebimento": "2023-09-03 23:56:04"
    },
    {
        "id_localidade": "SBGR",
        "validade_inicial": "2023-09-04 01:00:00",
        "mens": "METAR SBGR 040100Z 28003KT 230V340 CAVOK 25/19 Q1019=",
        "recebimento": "2023-09-04 00:58:37"
    },
    {
        "id_localidade": "SBGR",
        "validade_inicial": "2023-09-04 02:00:00",
        "mens": "METAR SBGR 040200Z 29002KT CAVOK 24/19 Q1019=",
        "recebimento": "2023-09-04 02:00:20"
    },
    {
        "id_localidade": "SBGR",
        "validade_inicial": "2023-09-04 03:00:00",
        "mens": "METAR SBGR 040300Z 31005KT CAVOK 25/18 Q1018=",
        "recebimento": "2023-09-04 02:56:32"
    },
    {
        "id_localidade": "SBGR",
        "validade_inicial": "2023-09-04 04:00:00",
        "mens": "METAR SBGR 040400Z 02005KT CAVOK 24/19 Q1017=",
        "recebimento": "2023-09-04 04:02:42"
    },
    {
        "id_localidade": "SBGR",
        "validade_inicial": "2023-09-04 05:00:00",
        "mens": "METAR SBGR 040500Z 06007KT CAVOK 22/19 Q1017=",
        "recebimento": "2023-09-04 05:00:31"
    },
    {
        "id_localidade": "SBGR",
        "validade_inicial": "2023-09-04 06:00:00",
        "mens": "METAR SBGR 040600Z 06005KT CAVOK 22/18 Q1017=",
        "recebimento": "2023-09-04 06:00:06"
    },
    {
        "id_localidade": "SBGR",
        "validade_inicial": "2023-09-04 07:00:00",
        "mens": "METAR SBGR 040700Z 07005KT CAVOK 21/18 Q1016=",
        "recebimento": "2023-09-04 06:59:01"
    },
    {
        "id_localidade": "SBGR",
        "validade_inicial": "2023-09-04 08:00:00",
        "mens": "METAR SBGR 040800Z 07005KT CAVOK 21/18 Q1016=",
        "recebimento": "2023-09-04 07:59:23"
    },
    {
        "id_localidade": "SBGR",
        "validade_inicial": "2023-09-04 09:00:00",
        "mens": "METAR SBGR 040900Z 07007KT CAVOK 20/18 Q1017=",
        "recebimento": "2023-09-04 09:01:40"
    },
    {
        "id_localidade": "SBGR",
        "validade_inicial": "2023-09-04 10:00:00",
        "mens": "METAR SBGR 041000Z 09008KT CAVOK 21/19 Q1017=",
        "recebimento": "2023-09-04 09:56:40"
    },
    {
        "id_localidade": "SBGR",
        "validade_inicial": "2023-09-04 11:00:00",
        "mens": "METAR SBGR 041100Z 07007KT CAVOK 23/19 Q1018=",
        "recebimento": "2023-09-04 10:56:51"
    },
    {
        "id_localidade": "SBGR",
        "validade_inicial": "2023-09-04 12:00:00",
        "mens": "METAR SBGR 041200Z 07006KT 040V100 CAVOK 26/19 Q1018=",
        "recebimento": "2023-09-04 11:57:11"
    },
    {
        "id_localidade": "SBGR",
        "validade_inicial": "2023-09-04 13:00:00",
        "mens": "METAR SBGR 041300Z 03003KT CAVOK 29/19 Q1017=",
        "recebimento": "2023-09-04 12:56:10"
    },
    {
        "id_localidade": "SBGR",
        "validade_inicial": "2023-09-04 14:00:00",
        "mens": "METAR SBGR 041400Z 34013KT CAVOK 30/17 Q1017=",
        "recebimento": "2023-09-04 13:56:27"
    },
    {
        "id_localidade": "SBGR",
        "validade_inicial": "2023-09-04 15:00:00",
        "mens": "METAR COR SBGR 041500Z 30015KT 9999 FEW025 31/18 Q1017 WS R28L=",
        "recebimento": "2023-09-04 15:11:05"
    },
    {
        "id_localidade": "SBGR",
        "validade_inicial": "2023-09-04 16:00:00",
        "mens": "METAR SBGR 041600Z 31017KT 9999 SCT040 31/17 Q1016=",
        "recebimento": "2023-09-04 15:53:06"
    },
    {
        "id_localidade": "SBGR",
        "validade_inicial": "2023-09-04 17:00:00",
        "mens": "METAR SBGR 041700Z 32015KT 9999 FEW040 32/18 Q1015=",
        "recebimento": "2023-09-04 16:58:24"
    },
    {
        "id_localidade": "SBGR",
        "validade_inicial": "2023-09-04 18:00:00",
        "mens": "METAR SBGR 041800Z 32012KT CAVOK 32/18 Q1014=",
        "recebimento": "2023-09-04 17:59:09"
    },
    {
        "id_localidade": "SBGR",
        "validade_inicial": "2023-09-04 19:00:00",
        "mens": "METAR SBGR 041900Z 32010KT CAVOK 31/17 Q1014=",
        "recebimento": "2023-09-04 18:56:49"
    },
    {
        "id_localidade": "SBGR",
        "validade_inicial": "2023-09-04 20:00:00",
        "mens": "METAR SBGR 042000Z 33009KT CAVOK 31/17 Q1014=",
        "recebimento": "2023-09-04 19:57:38"
    },
    {
        "id_localidade": "SBGR",
        "validade_inicial": "2023-09-04 21:00:00",
        "mens": "METAR SBGR 042100Z 34007KT CAVOK 30/18 Q1014=",
        "recebimento": "2023-09-04 20:55:50"
    },
    {
        "id_localidade": "SBGR",
        "validade_inicial": "2023-09-04 22:00:00",
        "mens": "METAR SBGR 042200Z 01007KT CAVOK 29/18 Q1015=",
        "recebimento": "2023-09-04 21:57:22"
    },
    {
        "id_localidade": "SBGR",
        "validade_inicial": "2023-09-04 23:00:00",
        "mens": "METAR SBGR 042300Z 01008KT CAVOK 29/18 Q1016=",
        "recebimento": "2023-09-04 22:57:40"
    },
    {
        "id_localidade": "SBGR",
        "validade_inicial": "2023-09-05 00:00:00",
        "mens": "METAR SBGR 050000Z 35005KT CAVOK 28/18 Q1017=",
        "recebimento": "2023-09-04 23:55:34"
    },
    {
        "id_localidade": "SBGR",
        "validade_inicial": "2023-09-05 01:00:00",
        "mens": "METAR SBGR 050100Z 33004KT CAVOK 28/18 Q1017=",
        "recebimento": "2023-09-05 00:58:08"
    },
    {
        "id_localidade": "SBGR",
        "validade_inicial": "2023-09-05 02:00:00",
        "mens": "METAR SBGR 050200Z 31003KT CAVOK 27/18 Q1017=",
        "recebimento": "2023-09-05 01:57:28"
    },
    {
        "id_localidade": "SBGR",
        "validade_inicial": "2023-09-05 03:00:00",
        "mens": "METAR SBGR 050300Z 34005KT CAVOK 27/18 Q1017=",
        "recebimento": "2023-09-05 02:57:06"
    },
    {
        "id_localidade": "SBGR",
        "validade_inicial": "2023-09-05 04:00:00",
        "mens": "METAR SBGR 050400Z 32002KT CAVOK 27/18 Q1016=",
        "recebimento": "2023-09-05 03:58:12"
    },
    {
        "id_localidade": "SBGR",
        "validade_inicial": "2023-09-05 05:00:00",
        "mens": "METAR SBGR 050500Z 25011KT CAVOK 25/18 Q1017=",
        "recebimento": "2023-09-05 04:58:48"
    },
    {
        "id_localidade": "SBGR",
        "validade_inicial": "2023-09-05 06:00:00",
        "mens": "METAR SBGR 050600Z 28009KT 9999 BKN045 24/18 Q1018=",
        "recebimento": "2023-09-05 05:59:50"
    },
    {
        "id_localidade": "SBGR",
        "validade_inicial": "2023-09-05 06:30:00",
        "mens": "SPECI SBGR 050630Z 29014KT 9999 -TSRA SCT030 FEW040CB BKN080 23/18 Q1018=",
        "recebimento": "2023-09-05 06:35:04"
    },
    {
        "id_localidade": "SBGR",
        "validade_inicial": "2023-09-05 07:00:00",
        "mens": "METAR SBGR 050700Z 32010KT 9999 -TSRA SCT030 FEW040CB BKN100 22/19 Q1018=",
        "recebimento": "2023-09-05 06:58:06"
    },
    {
        "id_localidade": "SBGR",
        "validade_inicial": "2023-09-05 08:00:00",
        "mens": "METAR SBGR 050800Z 32008KT 9999 -RA FEW030 BKN100 22/18 Q1018 RETS=",
        "recebimento": "2023-09-05 07:57:27"
    },
    {
        "id_localidade": "SBGR",
        "validade_inicial": "2023-09-05 09:00:00",
        "mens": "METAR SBGR 050900Z 33004KT 9999 -RA FEW020 BKN080 21/19 Q1019=",
        "recebimento": "2023-09-05 08:58:16"
    },
    {
        "id_localidade": "SBGR",
        "validade_inicial": "2023-09-05 10:00:00",
        "mens": "METAR SBGR 051000Z 00000KT CAVOK 21/19 Q1020=",
        "recebimento": "2023-09-05 09:57:39"
    },
    {
        "id_localidade": "SBGR",
        "validade_inicial": "2023-09-05 11:00:00",
        "mens": "METAR SBGR 051100Z 34005KT CAVOK 23/18 Q1020=",
        "recebimento": "2023-09-05 10:56:16"
    },
    {
        "id_localidade": "SBGR",
        "validade_inicial": "2023-09-05 12:00:00",
        "mens": "METAR SBGR 051200Z 03003G15KT 9999 FEW030 OVC100 23/19 Q1021=",
        "recebimento": "2023-09-05 11:57:44"
    },
    {
        "id_localidade": "SBGR",
        "validade_inicial": "2023-09-05 13:00:00",
        "mens": "METAR SBGR 051300Z 20002KT CAVOK 24/19 Q1022=",
        "recebimento": "2023-09-05 12:57:11"
    },
    {
        "id_localidade": "SBGR",
        "validade_inicial": "2023-09-05 14:00:00",
        "mens": "METAR SBGR 051400Z 21003KT 9999 FEW030 BKN050 BKN100 25/19 Q1022=",
        "recebimento": "2023-09-05 13:56:22"
    },
    {
        "id_localidade": "SBGR",
        "validade_inicial": "2023-09-05 14:40:00",
        "mens": "SPECI SBGR 051440Z 16011KT 4000 BR SCT009 BKN080 21/18 Q1023=",
        "recebimento": "2023-09-05 14:42:31"
    },
    {
        "id_localidade": "SBGR",
        "validade_inicial": "2023-09-05 15:00:00",
        "mens": "METAR SBGR 051500Z 17010KT 4000 BR BKN008 OVC080 20/17 Q1023=",
        "recebimento": "2023-09-05 14:57:11"
    },
    {
        "id_localidade": "SBGR",
        "validade_inicial": "2023-09-05 16:00:00",
        "mens": "METAR SBGR 051600Z 17005KT 4000 BR OVC009 19/17 Q1023=",
        "recebimento": "2023-09-05 15:55:15"
    },
    {
        "id_localidade": "SBGR",
        "validade_inicial": "2023-09-05 17:00:00",
        "mens": "METAR SBGR 051700Z 16007KT 3000 BR OVC009 18/16 Q1023=",
        "recebimento": "2023-09-05 16:56:12"
    },
    {
        "id_localidade": "SBGR",
        "validade_inicial": "2023-09-05 18:00:00",
        "mens": "METAR COR SBGR 051800Z 17005KT 4000 BR OVC009 18/16 Q1023=",
        "recebimento": "2023-09-05 18:01:21"
    },
    {
        "id_localidade": "SBGR",
        "validade_inicial": "2023-09-05 19:00:00",
        "mens": "METAR SBGR 051900Z 16007KT 130V190 5000 BR OVC011 18/15 Q1023=",
        "recebimento": "2023-09-05 18:56:00"
    },
    {
        "id_localidade": "SBGR",
        "validade_inicial": "2023-09-05 20:00:00",
        "mens": "METAR SBGR 052000Z 16005KT 8000 BKN010 OVC015 17/15 Q1024=",
        "recebimento": "2023-09-05 19:59:34"
    },
    {
        "id_localidade": "SBGR",
        "validade_inicial": "2023-09-05 20:41:00",
        "mens": "SPECI SBGR 052041Z 16006KT 3000 -DZ BR BKN009 OVC015 17/15 Q1024=",
        "recebimento": "2023-09-05 20:46:50"
    },
    {
        "id_localidade": "SBGR",
        "validade_inicial": "2023-09-05 21:00:00",
        "mens": "METAR SBGR 052100Z 15006KT 3500 -DZ BR BKN009 OVC013 17/15 Q1025=",
        "recebimento": "2023-09-05 20:58:36"
    },
    {
        "id_localidade": "SBGR",
        "validade_inicial": "2023-09-05 22:00:00",
        "mens": "METAR SBGR 052200Z 15006KT 080V180 9999 SCT010 OVC013 17/15 Q1025=",
        "recebimento": "2023-09-05 21:58:35"
    },
    {
        "id_localidade": "SBGR",
        "validade_inicial": "2023-09-05 23:00:00",
        "mens": "METAR SBGR 052300Z 14005KT 100V170 9999 OVC013 17/15 Q1026=",
        "recebimento": "2023-09-05 23:00:01"
    },
    {
        "id_localidade": "SBGR",
        "validade_inicial": "2023-09-06 00:00:00",
        "mens": "METAR SBGR 060000Z 12003KT 060V170 9999 OVC011 17/15 Q1026=",
        "recebimento": "2023-09-05 23:56:24"
    },
    {
        "id_localidade": "SBGR",
        "validade_inicial": "2023-09-06 01:00:00",
        "mens": "METAR SBGR 060100Z 15005KT 6000 -DZ BKN007 OVC011 16/16 Q1027=",
        "recebimento": "2023-09-06 00:57:01"
    },
    {
        "id_localidade": "SBGR",
        "validade_inicial": "2023-09-06 02:00:00",
        "mens": "METAR SBGR 060200Z 17003KT 8000 BKN009 OVC015 16/16 Q1027=",
        "recebimento": "2023-09-06 01:56:16"
    },
    {
        "id_localidade": "SBGR",
        "validade_inicial": "2023-09-06 03:00:00",
        "mens": "METAR SBGR 060300Z 16005KT 9000 OVC010 16/15 Q1026=",
        "recebimento": "2023-09-06 02:55:23"
    },
    {
        "id_localidade": "SBGR",
        "validade_inicial": "2023-09-06 04:00:00",
        "mens": "METAR SBGR 060400Z 13006KT 9999 BKN010 OVC015 17/15 Q1026=",
        "recebimento": "2023-09-06 03:55:34"
    },
    {
        "id_localidade": "SBGR",
        "validade_inicial": "2023-09-06 05:00:00",
        "mens": "METAR SBGR 060500Z 10004KT 9999 BKN009 OVC013 16/15 Q1026=",
        "recebimento": "2023-09-06 05:01:46"
    },
    {
        "id_localidade": "SBGR",
        "validade_inicial": "2023-09-06 06:00:00",
        "mens": "METAR SBGR 060600Z 10005KT 9999 BKN009 OVC013 16/15 Q1025=",
        "recebimento": "2023-09-06 05:55:50"
    },
    {
        "id_localidade": "SBGR",
        "validade_inicial": "2023-09-06 07:00:00",
        "mens": "METAR SBGR 060700Z 11003KT 9000 BKN008 OVC011 16/15 Q1025=",
        "recebimento": "2023-09-06 06:55:04"
    },
    {
        "id_localidade": "SBGR",
        "validade_inicial": "2023-09-06 08:00:00",
        "mens": "METAR SBGR 060800Z 14003KT 6000 -DZ OVC006 16/15 Q1025=",
        "recebimento": "2023-09-06 07:55:44"
    },
    {
        "id_localidade": "SBGR",
        "validade_inicial": "2023-09-06 09:00:00",
        "mens": "METAR SBGR 060900Z 12005KT 9999 BKN007 OVC011 16/15 Q1026=",
        "recebimento": "2023-09-06 08:55:24"
    },
    {
        "id_localidade": "SBGR",
        "validade_inicial": "2023-09-06 10:00:00",
        "mens": "METAR SBGR 061000Z 12007KT 9999 OVC010 16/15 Q1026=",
        "recebimento": "2023-09-06 09:56:32"
    },
    {
        "id_localidade": "SBGR",
        "validade_inicial": "2023-09-06 11:00:00",
        "mens": "METAR SBGR 061100Z 11010KT 4000 -DZ BR OVC009 16/15 Q1027=",
        "recebimento": "2023-09-06 10:56:21"
    },
    {
        "id_localidade": "SBGR",
        "validade_inicial": "2023-09-06 12:00:00",
        "mens": "METAR SBGR 061200Z 12007KT 9999 OVC012 17/14 Q1028=",
        "recebimento": "2023-09-06 11:56:09"
    },
    {
        "id_localidade": "SBGR",
        "validade_inicial": "2023-09-06 13:00:00",
        "mens": "METAR SBGR 061300Z 11009KT 9999 OVC015 18/14 Q1028=",
        "recebimento": "2023-09-06 12:56:47"
    },
    {
        "id_localidade": "SBGR",
        "validade_inicial": "2023-09-06 14:00:00",
        "mens": "METAR SBGR 061400Z 13008KT 9999 OVC017 18/15 Q1028=",
        "recebimento": "2023-09-06 13:55:32"
    },
    {
        "id_localidade": "SBGR",
        "validade_inicial": "2023-09-06 15:00:00",
        "mens": "METAR SBGR 061500Z 13009KT 9999 BKN025 19/14 Q1027=",
        "recebimento": "2023-09-06 14:59:50"
    },
    {
        "id_localidade": "SBGR",
        "validade_inicial": "2023-09-06 16:00:00",
        "mens": "METAR SBGR 061600Z 13009KT 9999 OVC023 21/15 Q1026=",
        "recebimento": "2023-09-06 15:55:27"
    },
    {
        "id_localidade": "SBGR",
        "validade_inicial": "2023-09-06 17:00:00",
        "mens": "METAR SBGR 061700Z 12011KT 9999 OVC020 20/14 Q1026=",
        "recebimento": "2023-09-06 16:56:15"
    },
    {
        "id_localidade": "SBGR",
        "validade_inicial": "2023-09-06 18:00:00",
        "mens": "METAR SBGR 061800Z 13011KT 9999 BKN019 OVC035 19/14 Q1025=",
        "recebimento": "2023-09-06 17:59:20"
    },
    {
        "id_localidade": "SBGR",
        "validade_inicial": "2023-09-06 19:00:00",
        "mens": "METAR SBGR 061900Z 14009KT 9999 SCT019 OVC035 19/14 Q1025=",
        "recebimento": "2023-09-06 18:58:44"
    },
    {
        "id_localidade": "SBGR",
        "validade_inicial": "2023-09-06 20:00:00",
        "mens": "METAR SBGR 062000Z 14009KT 9999 SCT020 OVC040 18/14 Q1025=",
        "recebimento": "2023-09-06 19:59:53"
    },
    {
        "id_localidade": "SBGR",
        "validade_inicial": "2023-09-06 21:00:00",
        "mens": "METAR SBGR 062100Z 13009KT 9999 BKN013 OVC026 17/14 Q1026=",
        "recebimento": "2023-09-06 20:58:02"
    },
    {
        "id_localidade": "SBGR",
        "validade_inicial": "2023-09-06 22:00:00",
        "mens": "METAR SBGR 062200Z 12008KT 9999 OVC012 17/14 Q1026=",
        "recebimento": "2023-09-06 21:59:02"
    },
    {
        "id_localidade": "SBGR",
        "validade_inicial": "2023-09-06 23:00:00",
        "mens": "METAR SBGR 062300Z 12007KT 9999 OVC011 17/14 Q1027=",
        "recebimento": "2023-09-06 22:58:21"
    },
    {
        "id_localidade": "SBGR",
        "validade_inicial": "2023-09-07 00:00:00",
        "mens": "METAR SBGR 070000Z 12008KT 9999 BKN013 OVC040 16/14 Q1027=",
        "recebimento": "2023-09-06 23:57:29"
    },
    {
        "id_localidade": "SBGR",
        "validade_inicial": "2023-09-07 01:00:00",
        "mens": "METAR SBGR 070100Z 12008KT 9999 FEW014 BKN019 16/14 Q1027=",
        "recebimento": "2023-09-07 00:58:39"
    },
    {
        "id_localidade": "SBGR",
        "validade_inicial": "2023-09-07 02:00:00",
        "mens": "METAR SBGR 070200Z 12008KT 090V150 9999 FEW014 BKN019 BKN038 16/14 Q1027=",
        "recebimento": "2023-09-07 01:56:39"
    },
    {
        "id_localidade": "SBGR",
        "validade_inicial": "2023-09-07 03:00:00",
        "mens": "METAR SBGR 070300Z 13007KT 080V170 9999 FEW013 SCT019 16/14 Q1027=",
        "recebimento": "2023-09-07 02:59:18"
    },
    {
        "id_localidade": "SBGR",
        "validade_inicial": "2023-09-07 04:00:00",
        "mens": "METAR SBGR 070400Z 12008KT 100V160 9999 BKN019 16/14 Q1027=",
        "recebimento": "2023-09-07 03:56:20"
    },
    {
        "id_localidade": "SBGR",
        "validade_inicial": "2023-09-07 05:00:00",
        "mens": "METAR SBGR 070500Z 12008KT 080V160 9999 SCT012 BKN018 BKN026 16/14 Q1026=",
        "recebimento": "2023-09-07 04:59:39"
    },
    {
        "id_localidade": "SBGR",
        "validade_inicial": "2023-09-07 06:00:00",
        "mens": "METAR SBGR 070600Z 12005KT 9999 FEW012 SCT014 BKN017 16/14 Q1026=",
        "recebimento": "2023-09-07 05:57:51"
    },
    {
        "id_localidade": "SBGR",
        "validade_inicial": "2023-09-07 07:00:00",
        "mens": "METAR SBGR 070700Z 10006KT 070V140 9999 BKN013 BKN019 16/14 Q1025=",
        "recebimento": "2023-09-07 06:57:48"
    },
    {
        "id_localidade": "SBGR",
        "validade_inicial": "2023-09-07 08:00:00",
        "mens": "METAR SBGR 070800Z 12005KT 070V170 9999 SCT013 BKN015 16/14 Q1025=",
        "recebimento": "2023-09-07 07:56:37"
    },
    {
        "id_localidade": "SBGR",
        "validade_inicial": "2023-09-07 09:00:00",
        "mens": "METAR SBGR 070900Z 08009KT 9999 SCT013 BKN019 16/13 Q1025=",
        "recebimento": "2023-09-07 08:58:17"
    },
    {
        "id_localidade": "SBGR",
        "validade_inicial": "2023-09-07 10:00:00",
        "mens": "METAR SBGR 071000Z 08007KT 9999 SCT013 OVC019 16/13 Q1026=",
        "recebimento": "2023-09-07 09:57:43"
    },
    {
        "id_localidade": "SBGR",
        "validade_inicial": "2023-09-07 11:00:00",
        "mens": "METAR SBGR 071100Z 08008KT 9999 FEW013 OVC017 16/13 Q1026=",
        "recebimento": "2023-09-07 11:01:23"
    },
    {
        "id_localidade": "SBGR",
        "validade_inicial": "2023-09-07 12:00:00",
        "mens": "METAR SBGR 071200Z 07010KT 9999 FEW013 OVC015 17/13 Q1026=",
        "recebimento": "2023-09-07 11:56:46"
    },
    {
        "id_localidade": "SBGR",
        "validade_inicial": "2023-09-07 13:00:00",
        "mens": "METAR SBGR 071300Z 06013KT 9999 OVC015 18/14 Q1026=",
        "recebimento": "2023-09-07 12:56:42"
    },
    {
        "id_localidade": "SBGR",
        "validade_inicial": "2023-09-07 14:00:00",
        "mens": "METAR SBGR 071400Z 04011KT 9999 BKN019 20/15 Q1025=",
        "recebimento": "2023-09-07 13:59:50"
    },
    {
        "id_localidade": "SBGR",
        "validade_inicial": "2023-09-07 15:00:00",
        "mens": "METAR SBGR 071500Z 06010KT CAVOK 22/15 Q1024=",
        "recebimento": "2023-09-07 15:00:40"
    },
    {
        "id_localidade": "SBGR",
        "validade_inicial": "2023-09-07 16:00:00",
        "mens": "METAR SBGR 071600Z 07009KT CAVOK 23/15 Q1023=",
        "recebimento": "2023-09-07 16:00:12"
    },
    {
        "id_localidade": "SBGR",
        "validade_inicial": "2023-09-07 17:00:00",
        "mens": "METAR SBGR 071700Z 07007KT CAVOK 25/15 Q1021=",
        "recebimento": "2023-09-07 17:04:04"
    },
    {
        "id_localidade": "SBGR",
        "validade_inicial": "2023-09-07 18:00:00",
        "mens": "METAR SBGR 071800Z 06007KT CAVOK 26/15 Q1021=",
        "recebimento": "2023-09-07 17:58:35"
    },
    {
        "id_localidade": "SBGR",
        "validade_inicial": "2023-09-07 19:00:00",
        "mens": "METAR SBGR 071900Z 07008KT CAVOK 26/15 Q1020=",
        "recebimento": "2023-09-07 18:58:03"
    },
    {
        "id_localidade": "SBGR",
        "validade_inicial": "2023-09-07 20:00:00",
        "mens": "METAR SBGR 072000Z 15008KT CAVOK 23/17 Q1021=",
        "recebimento": "2023-09-07 19:57:09"
    },
    {
        "id_localidade": "SBGR",
        "validade_inicial": "2023-09-07 21:00:00",
        "mens": "METAR SBGR 072100Z 16005KT CAVOK 20/16 Q1021=",
        "recebimento": "2023-09-07 20:55:03"
    },
    {
        "id_localidade": "SBGR",
        "validade_inicial": "2023-09-07 22:00:00",
        "mens": "METAR SBGR 072200Z 16003KT CAVOK 18/16 Q1022=",
        "recebimento": "2023-09-07 21:57:17"
    },
    {
        "id_localidade": "SBGR",
        "validade_inicial": "2023-09-07 23:00:00",
        "mens": "METAR SBGR 072300Z 09002KT CAVOK 18/16 Q1022=",
        "recebimento": "2023-09-07 22:55:37"
    },
    {
        "id_localidade": "SBGR",
        "validade_inicial": "2023-09-08 00:00:00",
        "mens": "METAR SBGR 080000Z 13002KT 8000 NSC 16/15 Q1023=",
        "recebimento": "2023-09-07 23:59:07"
    },
    {
        "id_localidade": "SBGR",
        "validade_inicial": "2023-09-08 01:00:00",
        "mens": "METAR SBGR 080100Z 07006KT CAVOK 17/16 Q1022=",
        "recebimento": "2023-09-08 00:56:13"
    },
    {
        "id_localidade": "SBGR",
        "validade_inicial": "2023-09-08 02:00:00",
        "mens": "METAR SBGR 080200Z 07008KT CAVOK 16/16 Q1022=",
        "recebimento": "2023-09-08 01:58:23"
    },
    {
        "id_localidade": "SBGR",
        "validade_inicial": "2023-09-08 03:00:00",
        "mens": "METAR SBGR 080300Z 08008KT CAVOK 16/16 Q1021=",
        "recebimento": "2023-09-08 02:58:17"
    },
    {
        "id_localidade": "SBGR",
        "validade_inicial": "2023-09-08 04:00:00",
        "mens": "METAR SBGR 080400Z 07009KT CAVOK 16/15 Q1020=",
        "recebimento": "2023-09-08 03:56:02"
    },
    {
        "id_localidade": "SBGR",
        "validade_inicial": "2023-09-08 05:00:00",
        "mens": "METAR SBGR 080500Z 08007KT CAVOK 16/15 Q1020=",
        "recebimento": "2023-09-08 04:59:15"
    },
    {
        "id_localidade": "SBGR",
        "validade_inicial": "2023-09-08 06:00:00",
        "mens": "METAR SBGR 080600Z 07008KT CAVOK 16/15 Q1019=",
        "recebimento": "2023-09-08 05:57:31"
    },
    {
        "id_localidade": "SBGR",
        "validade_inicial": "2023-09-08 07:00:00",
        "mens": "METAR SBGR 080700Z 07011KT 4000 BR BKN002 16/16 Q1020=",
        "recebimento": "2023-09-08 06:56:03"
    },
    {
        "id_localidade": "SBGR",
        "validade_inicial": "2023-09-08 08:00:00",
        "mens": "METAR SBGR 080800Z 06011KT 5000 BR OVC003 15/15 Q1019=",
        "recebimento": "2023-09-08 07:56:43"
    },
    {
        "id_localidade": "SBGR",
        "validade_inicial": "2023-09-08 09:00:00",
        "mens": "METAR SBGR 080900Z 06010KT 4000 BR OVC003 15/15 Q1020=",
        "recebimento": "2023-09-08 08:56:57"
    },
    {
        "id_localidade": "SBGR",
        "validade_inicial": "2023-09-08 09:35:00",
        "mens": "SPECI COR SBGR 080935Z 07009KT 1000 R10R/P2000 R10L/P2000 R28R/P2000 R28L/P2000 BR OVC003 15/15 Q1020=",
        "recebimento": "2023-09-08 09:41:55"
    },
    {
        "id_localidade": "SBGR",
        "validade_inicial": "2023-09-08 10:00:00",
        "mens": "METAR SBGR 081000Z 07007KT 3000 1000E BR BKN003 15/15 Q1021=",
        "recebimento": "2023-09-08 09:57:03"
    },
    {
        "id_localidade": "SBGR",
        "validade_inicial": "2023-09-08 11:00:00",
        "mens": "METAR SBGR 081100Z 07009KT 4000 BR SCT004 16/16 Q1021=",
        "recebimento": "2023-09-08 10:56:04"
    },
    {
        "id_localidade": "SBGR",
        "validade_inicial": "2023-09-08 11:20:00",
        "mens": "SPECI SBGR 081120Z 07010KT 9999 FEW005 17/16 Q1021=",
        "recebimento": "2023-09-08 11:23:05"
    },
    {
        "id_localidade": "SBGR",
        "validade_inicial": "2023-09-08 12:00:00",
        "mens": "METAR SBGR 081200Z 06010KT CAVOK 19/16 Q1021=",
        "recebimento": "2023-09-08 11:58:14"
    },
    {
        "id_localidade": "SBGR",
        "validade_inicial": "2023-09-08 13:00:00",
        "mens": "METAR SBGR 081300Z 07008KT CAVOK 23/15 Q1021=",
        "recebimento": "2023-09-08 12:55:21"
    },
    {
        "id_localidade": "SBGR",
        "validade_inicial": "2023-09-08 14:00:00",
        "mens": "METAR SBGR 081400Z 03011KT CAVOK 27/14 Q1020=",
        "recebimento": "2023-09-08 13:55:08"
    },
    {
        "id_localidade": "SBGR",
        "validade_inicial": "2023-09-08 15:00:00",
        "mens": "METAR SBGR 081500Z 33012G22KT CAVOK 28/12 Q1019=",
        "recebimento": "2023-09-08 14:56:18"
    },
    {
        "id_localidade": "SBGR",
        "validade_inicial": "2023-09-08 16:00:00",
        "mens": "METAR SBGR 081600Z 35013KT CAVOK 30/11 Q1018=",
        "recebimento": "2023-09-08 15:55:34"
    },
    {
        "id_localidade": "SBGR",
        "validade_inicial": "2023-09-08 17:00:00",
        "mens": "METAR SBGR 081700Z 36011KT CAVOK 30/13 Q1017=",
        "recebimento": "2023-09-08 16:58:24"
    },
    {
        "id_localidade": "SBGR",
        "validade_inicial": "2023-09-08 18:00:00",
        "mens": "METAR SBGR 081800Z 32009KT CAVOK 30/11 Q1017=",
        "recebimento": "2023-09-08 18:00:38"
    },
    {
        "id_localidade": "SBGR",
        "validade_inicial": "2023-09-08 19:00:00",
        "mens": "METAR SBGR 081900Z 31005KT CAVOK 29/11 Q1017=",
        "recebimento": "2023-09-08 19:01:29"
    },
    {
        "id_localidade": "SBGR",
        "validade_inicial": "2023-09-08 20:00:00",
        "mens": "METAR SBGR 082000Z 29007KT CAVOK 29/10 Q1017=",
        "recebimento": "2023-09-08 20:01:52"
    },
    {
        "id_localidade": "SBGR",
        "validade_inicial": "2023-09-08 21:00:00",
        "mens": "METAR SBGR 082100Z 30004KT CAVOK 26/11 Q1017=",
        "recebimento": "2023-09-08 20:58:12"
    },
    {
        "id_localidade": "SBGR",
        "validade_inicial": "2023-09-08 22:00:00",
        "mens": "METAR SBGR 082200Z 13001KT CAVOK 22/14 Q1018=",
        "recebimento": "2023-09-08 22:00:41"
    },
    {
        "id_localidade": "SBGR",
        "validade_inicial": "2023-09-08 23:00:00",
        "mens": "METAR SBGR 082300Z 06006KT CAVOK 23/15 Q1018=",
        "recebimento": "2023-09-08 23:01:31"
    },
    {
        "id_localidade": "SBGR",
        "validade_inicial": "2023-09-09 00:00:00",
        "mens": "METAR SBGR 090000Z 18003KT CAVOK 20/15 Q1019=",
        "recebimento": "2023-09-08 23:57:09"
    },
    {
        "id_localidade": "SBGR",
        "validade_inicial": "2023-09-09 01:00:00",
        "mens": "METAR SBGR 090100Z 16001KT CAVOK 20/16 Q1019=",
        "recebimento": "2023-09-09 00:59:22"
    },
    {
        "id_localidade": "SBGR",
        "validade_inicial": "2023-09-09 02:00:00",
        "mens": "METAR SBGR 090200Z 00000KT CAVOK 19/17 Q1019=",
        "recebimento": "2023-09-09 01:59:40"
    },
    {
        "id_localidade": "SBGR",
        "validade_inicial": "2023-09-09 03:00:00",
        "mens": "METAR SBGR 090300Z 17001KT CAVOK 18/16 Q1019=",
        "recebimento": "2023-09-09 02:59:33"
    },
    {
        "id_localidade": "SBGR",
        "validade_inicial": "2023-09-09 04:00:00",
        "mens": "METAR SBGR 090400Z 07003KT CAVOK 18/15 Q1019=",
        "recebimento": "2023-09-09 03:58:48"
    },
    {
        "id_localidade": "SBGR",
        "validade_inicial": "2023-09-09 05:00:00",
        "mens": "METAR SBGR 090500Z 08006KT CAVOK 18/15 Q1018=",
        "recebimento": "2023-09-09 04:57:58"
    },
    {
        "id_localidade": "SBGR",
        "validade_inicial": "2023-09-09 06:00:00",
        "mens": "METAR SBGR 090600Z 07007KT CAVOK 18/15 Q1018=",
        "recebimento": "2023-09-09 05:59:14"
    },
    {
        "id_localidade": "SBGR",
        "validade_inicial": "2023-09-09 07:00:00",
        "mens": "METAR SBGR 090700Z 07006KT CAVOK 17/15 Q1018=",
        "recebimento": "2023-09-09 06:57:29"
    },
    {
        "id_localidade": "SBGR",
        "validade_inicial": "2023-09-09 08:00:00",
        "mens": "METAR SBGR 090800Z 00000KT CAVOK 17/15 Q1019=",
        "recebimento": "2023-09-09 07:56:43"
    },
    {
        "id_localidade": "SBGR",
        "validade_inicial": "2023-09-09 09:00:00",
        "mens": "METAR SBGR 090900Z 00000KT CAVOK 16/15 Q1020=",
        "recebimento": "2023-09-09 08:59:29"
    },
    {
        "id_localidade": "SBGR",
        "validade_inicial": "2023-09-09 10:00:00",
        "mens": "METAR SBGR 091000Z 00000KT CAVOK 17/15 Q1020=",
        "recebimento": "2023-09-09 09:56:07"
    },
    {
        "id_localidade": "SBGR",
        "validade_inicial": "2023-09-09 11:00:00",
        "mens": "METAR SBGR 091100Z 06003KT CAVOK 21/16 Q1021=",
        "recebimento": "2023-09-09 10:56:04"
    },
    {
        "id_localidade": "SBGR",
        "validade_inicial": "2023-09-09 12:00:00",
        "mens": "METAR SBGR 091200Z 02004KT CAVOK 23/15 Q1021=",
        "recebimento": "2023-09-09 11:56:11"
    },
    {
        "id_localidade": "SBGR",
        "validade_inicial": "2023-09-09 13:00:00",
        "mens": "METAR SBGR 091300Z 30008G18KT CAVOK 26/14 Q1021=",
        "recebimento": "2023-09-09 12:57:14"
    },
    {
        "id_localidade": "SBGR",
        "validade_inicial": "2023-09-09 14:00:00",
        "mens": "METAR SBGR 091400Z 31014KT CAVOK 26/13 Q1020=",
        "recebimento": "2023-09-09 13:57:04"
    },
    {
        "id_localidade": "SBGR",
        "validade_inicial": "2023-09-09 15:00:00",
        "mens": "METAR SBGR 091500Z 31010KT 9999 FEW040 28/13 Q1020=",
        "recebimento": "2023-09-09 14:57:07"
    },
    {
        "id_localidade": "SBGR",
        "validade_inicial": "2023-09-09 16:00:00",
        "mens": "METAR SBGR 091600Z 28013KT 9999 FEW045 27/14 Q1019=",
        "recebimento": "2023-09-09 15:55:21"
    },
    {
        "id_localidade": "SBGR",
        "validade_inicial": "2023-09-09 17:00:00",
        "mens": "METAR SBGR 091700Z 28014KT 9999 SCT045 27/14 Q1019=",
        "recebimento": "2023-09-09 16:56:38"
    },
    {
        "id_localidade": "SBGR",
        "validade_inicial": "2023-09-09 18:00:00",
        "mens": "METAR SBGR 091800Z 25014KT 9999 FEW045TCU OVC100 24/15 Q1019=",
        "recebimento": "2023-09-09 17:56:46"
    },
    {
        "id_localidade": "SBGR",
        "validade_inicial": "2023-09-09 19:00:00",
        "mens": "METAR SBGR 091900Z 27013KT CAVOK 23/15 Q1020=",
        "recebimento": "2023-09-09 18:57:41"
    },
    {
        "id_localidade": "SBGR",
        "validade_inicial": "2023-09-09 20:00:00",
        "mens": "METAR SBGR 092000Z 34006KT CAVOK 23/15 Q1020=",
        "recebimento": "2023-09-09 20:00:24"
    },
    {
        "id_localidade": "SBGR",
        "validade_inicial": "2023-09-09 21:00:00",
        "mens": "METAR SBGR 092100Z 19002KT CAVOK 22/15 Q1020=",
        "recebimento": "2023-09-09 21:01:43"
    },
    {
        "id_localidade": "SBGR",
        "validade_inicial": "2023-09-09 22:00:00",
        "mens": "METAR SBGR 092200Z 08006KT 9999 -RA NSC 21/16 Q1020=",
        "recebimento": "2023-09-09 21:59:16"
    },
    {
        "id_localidade": "SBGR",
        "validade_inicial": "2023-09-09 23:00:00",
        "mens": "METAR SBGR 092300Z 21002KT CAVOK 20/16 Q1020=",
        "recebimento": "2023-09-09 22:55:44"
    },
    {
        "id_localidade": "SBGR",
        "validade_inicial": "2023-09-10 00:00:00",
        "mens": "METAR SBGR 100000Z 18004KT CAVOK 20/15 Q1021=",
        "recebimento": "2023-09-09 23:58:55"
    },
    {
        "id_localidade": "SBGR",
        "validade_inicial": "2023-09-10 01:00:00",
        "mens": "METAR SBGR 100100Z 00000KT CAVOK 20/15 Q1022=",
        "recebimento": "2023-09-10 00:59:02"
    },
    {
        "id_localidade": "SBGR",
        "validade_inicial": "2023-09-10 02:00:00",
        "mens": "METAR SBGR 100200Z 14002KT CAVOK 19/15 Q1021=",
        "recebimento": "2023-09-10 02:01:42"
    },
    {
        "id_localidade": "SBGR",
        "validade_inicial": "2023-09-10 03:00:00",
        "mens": "METAR SBGR 100300Z 09002KT CAVOK 17/15 Q1021=",
        "recebimento": "2023-09-10 02:58:23"
    },
    {
        "id_localidade": "SBGR",
        "validade_inicial": "2023-09-10 04:00:00",
        "mens": "METAR SBGR 100400Z 23003KT CAVOK 17/15 Q1021=",
        "recebimento": "2023-09-10 04:01:53"
    },
    {
        "id_localidade": "SBGR",
        "validade_inicial": "2023-09-10 05:00:00",
        "mens": "METAR SBGR 100500Z 16001KT CAVOK 17/15 Q1021=",
        "recebimento": "2023-09-10 04:59:07"
    },
    {
        "id_localidade": "SBGR",
        "validade_inicial": "2023-09-10 06:00:00",
        "mens": "METAR SBGR 100600Z 07003KT CAVOK 18/15 Q1020=",
        "recebimento": "2023-09-10 05:59:43"
    },
    {
        "id_localidade": "SBGR",
        "validade_inicial": "2023-09-10 07:00:00",
        "mens": "METAR SBGR 100700Z 11001KT CAVOK 17/16 Q1020=",
        "recebimento": "2023-09-10 06:57:20"
    },
    {
        "id_localidade": "SBGR",
        "validade_inicial": "2023-09-10 08:00:00",
        "mens": "METAR SBGR 100800Z 00000KT CAVOK 17/16 Q1021=",
        "recebimento": "2023-09-10 07:58:29"
    },
    {
        "id_localidade": "SBGR",
        "validade_inicial": "2023-09-10 09:00:00",
        "mens": "METAR SBGR 100900Z 06006KT 6000 NSC 17/15 Q1021=",
        "recebimento": "2023-09-10 08:59:02"
    },
    {
        "id_localidade": "SBGR",
        "validade_inicial": "2023-09-10 10:00:00",
        "mens": "METAR SBGR 101000Z 08002KT 9000 NSC 18/15 Q1022=",
        "recebimento": "2023-09-10 09:56:19"
    },
    {
        "id_localidade": "SBGR",
        "validade_inicial": "2023-09-10 11:00:00",
        "mens": "METAR SBGR 101100Z 14004KT CAVOK 19/16 Q1023=",
        "recebimento": "2023-09-10 10:55:15"
    },
    {
        "id_localidade": "SBGR",
        "validade_inicial": "2023-09-10 12:00:00",
        "mens": "METAR SBGR 101200Z 11007KT 9999 FEW017 20/15 Q1024=",
        "recebimento": "2023-09-10 11:56:44"
    },
    {
        "id_localidade": "SBGR",
        "validade_inicial": "2023-09-10 13:00:00",
        "mens": "METAR SBGR 101300Z 12006KT 9999 SCT021 21/15 Q1024=",
        "recebimento": "2023-09-10 12:57:58"
    },
    {
        "id_localidade": "SBGR",
        "validade_inicial": "2023-09-10 14:00:00",
        "mens": "METAR SBGR 101400Z 14006KT 9999 FEW026 22/16 Q1023=",
        "recebimento": "2023-09-10 13:56:48"
    },
    {
        "id_localidade": "SBGR",
        "validade_inicial": "2023-09-10 15:00:00",
        "mens": "METAR SBGR 101500Z 11006KT 9999 FEW026 23/16 Q1023=",
        "recebimento": "2023-09-10 15:00:16"
    },
    {
        "id_localidade": "SBGR",
        "validade_inicial": "2023-09-10 16:00:00",
        "mens": "METAR SBGR 101600Z 10005KT 9999 FEW033 24/16 Q1022=",
        "recebimento": "2023-09-10 15:57:10"
    },
    {
        "id_localidade": "SBGR",
        "validade_inicial": "2023-09-10 17:00:00",
        "mens": "METAR SBGR 101700Z 07008KT CAVOK 25/16 Q1021=",
        "recebimento": "2023-09-10 16:57:04"
    },
    {
        "id_localidade": "SBGR",
        "validade_inicial": "2023-09-10 18:00:00",
        "mens": "METAR SBGR 101800Z 05008KT CAVOK 25/16 Q1021=",
        "recebimento": "2023-09-10 17:57:10"
    },
    {
        "id_localidade": "SBGR",
        "validade_inicial": "2023-09-10 19:00:00",
        "mens": "METAR SBGR 101900Z 06007KT CAVOK 26/16 Q1020=",
        "recebimento": "2023-09-10 18:56:56"
    },
    {
        "id_localidade": "SBGR",
        "validade_inicial": "2023-09-10 20:00:00",
        "mens": "METAR SBGR 102000Z 12009KT 9999 FEW040 24/17 Q1020=",
        "recebimento": "2023-09-10 19:58:13"
    },
    {
        "id_localidade": "SBGR",
        "validade_inicial": "2023-09-10 21:00:00",
        "mens": "METAR SBGR 102100Z 13006KT 9999 FEW020 22/18 Q1021=",
        "recebimento": "2023-09-10 20:57:38"
    },
    {
        "id_localidade": "SBGR",
        "validade_inicial": "2023-09-10 22:00:00",
        "mens": "METAR SBGR 102200Z 14005KT 8000 BKN013 20/17 Q1022=",
        "recebimento": "2023-09-10 21:50:30"
    },
    {
        "id_localidade": "SBGR",
        "validade_inicial": "2023-09-10 23:00:00",
        "mens": "METAR SBGR 102300Z 13005KT 9999 OVC010 19/17 Q1022=",
        "recebimento": "2023-09-10 23:00:08"
    },
    {
        "id_localidade": "SBGR",
        "validade_inicial": "2023-09-11 00:00:00",
        "mens": "METAR SBGR 110000Z 13005KT 9999 OVC010 19/17 Q1023=",
        "recebimento": "2023-09-10 23:57:51"
    },
    {
        "id_localidade": "SBGR",
        "validade_inicial": "2023-09-11 01:00:00",
        "mens": "METAR SBGR 110100Z 14005KT 9999 OVC009 19/17 Q1023=",
        "recebimento": "2023-09-11 00:57:16"
    },
    {
        "id_localidade": "SBGR",
        "validade_inicial": "2023-09-11 02:00:00",
        "mens": "METAR SBGR 110200Z 14004KT 9999 OVC009 19/17 Q1023=",
        "recebimento": "2023-09-11 01:58:24"
    },
    {
        "id_localidade": "SBGR",
        "validade_inicial": "2023-09-11 03:00:00",
        "mens": "METAR SBGR 110300Z 11005KT 9999 OVC009 19/17 Q1023=",
        "recebimento": "2023-09-11 02:57:32"
    },
    {
        "id_localidade": "SBGR",
        "validade_inicial": "2023-09-11 04:00:00",
        "mens": "METAR SBGR 110400Z 09006KT 9999 OVC009 19/17 Q1022=",
        "recebimento": "2023-09-11 03:56:02"
    },
    {
        "id_localidade": "SBGR",
        "validade_inicial": "2023-09-11 05:00:00",
        "mens": "METAR SBGR 110500Z 07006KT 9999 OVC009 19/17 Q1021=",
        "recebimento": "2023-09-11 04:56:05"
    },
    {
        "id_localidade": "SBGR",
        "validade_inicial": "2023-09-11 06:00:00",
        "mens": "METAR SBGR 110600Z 07007KT 9999 OVC009 18/17 Q1021=",
        "recebimento": "2023-09-11 06:12:51"
    },
    {
        "id_localidade": "SBGR",
        "validade_inicial": "2023-09-11 07:00:00",
        "mens": "METAR SBGR 110700Z 05008KT 9999 OVC007 18/17 Q1020=",
        "recebimento": "2023-09-11 06:56:03"
    },
    {
        "id_localidade": "SBGR",
        "validade_inicial": "2023-09-11 08:00:00",
        "mens": "METAR SBGR 110800Z 06008KT 9999 OVC007 18/17 Q1020=",
        "recebimento": "2023-09-11 07:58:23"
    },
    {
        "id_localidade": "SBGR",
        "validade_inicial": "2023-09-11 09:00:00",
        "mens": "METAR SBGR 110900Z 06009KT 9999 OVC007 18/17 Q1020=",
        "recebimento": "2023-09-11 08:56:55"
    },
    {
        "id_localidade": "SBGR",
        "validade_inicial": "2023-09-11 10:00:00",
        "mens": "METAR SBGR 111000Z 06011KT 7000 OVC008 18/17 Q1021=",
        "recebimento": "2023-09-11 10:01:21"
    },
    {
        "id_localidade": "SBGR",
        "validade_inicial": "2023-09-11 11:00:00",
        "mens": "METAR SBGR 111100Z 06010KT 7000 BKN009 19/17 Q1021=",
        "recebimento": "2023-09-11 11:00:45"
    },
    {
        "id_localidade": "SBGR",
        "validade_inicial": "2023-09-11 12:00:00",
        "mens": "METAR SBGR 111200Z 07009KT 9999 FEW011 20/17 Q1022=",
        "recebimento": "2023-09-11 11:58:29"
    },
    {
        "id_localidade": "SBGR",
        "validade_inicial": "2023-09-11 13:00:00",
        "mens": "METAR SBGR 111300Z 08007KT CAVOK 23/17 Q1022=",
        "recebimento": "2023-09-11 12:59:24"
    },
    {
        "id_localidade": "SBGR",
        "validade_inicial": "2023-09-11 14:00:00",
        "mens": "METAR SBGR 111400Z 04005KT CAVOK 25/17 Q1021=",
        "recebimento": "2023-09-11 14:01:36"
    },
    {
        "id_localidade": "SBGR",
        "validade_inicial": "2023-09-11 15:00:00",
        "mens": "METAR SBGR 111500Z 12004KT CAVOK 27/15 Q1020=",
        "recebimento": "2023-09-11 15:01:54"
    },
    {
        "id_localidade": "SBGR",
        "validade_inicial": "2023-09-11 16:00:00",
        "mens": "METAR SBGR 111600Z 10006KT CAVOK 28/14 Q1019=",
        "recebimento": "2023-09-11 15:55:12"
    },
    {
        "id_localidade": "SBGR",
        "validade_inicial": "2023-09-11 17:00:00",
        "mens": "METAR SBGR 111700Z 17004KT CAVOK 29/12 Q1018=",
        "recebimento": "2023-09-11 16:57:52"
    },
    {
        "id_localidade": "SBGR",
        "validade_inicial": "2023-09-11 18:00:00",
        "mens": "METAR SBGR 111800Z 09006KT CAVOK 30/11 Q1017=",
        "recebimento": "2023-09-11 17:58:13"
    },
    {
        "id_localidade": "SBGR",
        "validade_inicial": "2023-09-11 19:00:00",
        "mens": "METAR SBGR 111900Z 07007KT CAVOK 30/10 Q1017=",
        "recebimento": "2023-09-11 18:59:39"
    },
    {
        "id_localidade": "SBGR",
        "validade_inicial": "2023-09-11 20:00:00",
        "mens": "METAR SBGR 112000Z 07006KT CAVOK 29/10 Q1017=",
        "recebimento": "2023-09-11 19:57:51"
    },
    {
        "id_localidade": "SBGR",
        "validade_inicial": "2023-09-11 21:00:00",
        "mens": "METAR SBGR 112100Z 06007KT CAVOK 27/11 Q1017=",
        "recebimento": "2023-09-11 21:01:36"
    },
    {
        "id_localidade": "SBGR",
        "validade_inicial": "2023-09-11 22:00:00",
        "mens": "METAR SBGR 112200Z 10004KT CAVOK 24/13 Q1017=",
        "recebimento": "2023-09-11 21:57:28"
    },
    {
        "id_localidade": "SBGR",
        "validade_inicial": "2023-09-11 23:00:00",
        "mens": "METAR SBGR 112300Z 15003KT CAVOK 21/13 Q1018=",
        "recebimento": "2023-09-11 22:58:04"
    },
    {
        "id_localidade": "SBGR",
        "validade_inicial": "2023-09-12 00:00:00",
        "mens": "METAR SBGR 120000Z 07002KT CAVOK 20/14 Q1018=",
        "recebimento": "2023-09-11 23:57:07"
    },
    {
        "id_localidade": "SBGR",
        "validade_inicial": "2023-09-12 01:00:00",
        "mens": "METAR SBGR 120100Z 00000KT CAVOK 19/14 Q1018=",
        "recebimento": "2023-09-12 00:59:07"
    },
    {
        "id_localidade": "SBGR",
        "validade_inicial": "2023-09-12 02:00:00",
        "mens": "METAR SBGR 120200Z 09002KT CAVOK 19/14 Q1018=",
        "recebimento": "2023-09-12 01:55:21"
    },
    {
        "id_localidade": "SBGR",
        "validade_inicial": "2023-09-12 03:00:00",
        "mens": "METAR SBGR 120300Z 11002KT CAVOK 18/13 Q1018=",
        "recebimento": "2023-09-12 02:55:10"
    },
    {
        "id_localidade": "SBGR",
        "validade_inicial": "2023-09-12 04:00:00",
        "mens": "METAR SBGR 120400Z 04001KT CAVOK 17/13 Q1018=",
        "recebimento": "2023-09-12 03:55:06"
    },
    {
        "id_localidade": "SBGR",
        "validade_inicial": "2023-09-12 05:00:00",
        "mens": "METAR SBGR 120500Z 07007KT CAVOK 20/10 Q1017=",
        "recebimento": "2023-09-12 04:55:04"
    },
    {
        "id_localidade": "SBGR",
        "validade_inicial": "2023-09-12 06:00:00",
        "mens": "METAR SBGR 120600Z 09005KT CAVOK 21/11 Q1018=",
        "recebimento": "2023-09-12 05:55:04"
    },
    {
        "id_localidade": "SBGR",
        "validade_inicial": "2023-09-12 07:00:00",
        "mens": "METAR SBGR 120700Z 07007KT CAVOK 21/11 Q1018=",
        "recebimento": "2023-09-12 06:55:05"
    },
    {
        "id_localidade": "SBGR",
        "validade_inicial": "2023-09-12 08:00:00",
        "mens": "METAR SBGR 120800Z 07004KT CAVOK 19/11 Q1019=",
        "recebimento": "2023-09-12 07:55:54"
    },
    {
        "id_localidade": "SBGR",
        "validade_inicial": "2023-09-12 09:00:00",
        "mens": "METAR SBGR 120900Z 08002KT CAVOK 16/12 Q1020=",
        "recebimento": "2023-09-12 08:55:23"
    },
    {
        "id_localidade": "SBGR",
        "validade_inicial": "2023-09-12 10:00:00",
        "mens": "METAR SBGR 121000Z 08007KT CAVOK 18/12 Q1021=",
        "recebimento": "2023-09-12 09:58:25"
    },
    {
        "id_localidade": "SBGR",
        "validade_inicial": "2023-09-12 11:00:00",
        "mens": "METAR SBGR 121100Z 08008KT CAVOK 21/13 Q1021=",
        "recebimento": "2023-09-12 10:57:41"
    },
    {
        "id_localidade": "SBGR",
        "validade_inicial": "2023-09-12 12:00:00",
        "mens": "METAR SBGR 121200Z 05006KT CAVOK 24/13 Q1021=",
        "recebimento": "2023-09-12 11:58:26"
    },
    {
        "id_localidade": "SBGR",
        "validade_inicial": "2023-09-12 13:00:00",
        "mens": "METAR SBGR 121300Z 03005KT CAVOK 27/11 Q1021=",
        "recebimento": "2023-09-12 13:01:12"
    },
    {
        "id_localidade": "SBGR",
        "validade_inicial": "2023-09-12 14:00:00",
        "mens": "METAR SBGR 121400Z 35009KT CAVOK 28/10 Q1021=",
        "recebimento": "2023-09-12 13:56:40"
    },
    {
        "id_localidade": "SBGR",
        "validade_inicial": "2023-09-12 15:00:00",
        "mens": "METAR SBGR 121500Z 05008KT CAVOK 29/08 Q1019=",
        "recebimento": "2023-09-12 14:57:26"
    },
    {
        "id_localidade": "SBGR",
        "validade_inicial": "2023-09-12 16:00:00",
        "mens": "METAR SBGR 121600Z 06007KT CAVOK 29/08 Q1018=",
        "recebimento": "2023-09-12 15:59:31"
    },
    {
        "id_localidade": "SBGR",
        "validade_inicial": "2023-09-12 17:00:00",
        "mens": "METAR SBGR 121700Z 36010KT CAVOK 31/08 Q1017=",
        "recebimento": "2023-09-12 16:55:36"
    },
    {
        "id_localidade": "SBGR",
        "validade_inicial": "2023-09-12 18:00:00",
        "mens": "METAR SBGR 121800Z 27007KT CAVOK 30/08 Q1017=",
        "recebimento": "2023-09-12 17:56:07"
    },
    {
        "id_localidade": "SBGR",
        "validade_inicial": "2023-09-12 19:00:00",
        "mens": "METAR SBGR 121900Z 27005KT CAVOK 31/09 Q1016=",
        "recebimento": "2023-09-12 18:55:05"
    },
    {
        "id_localidade": "SBGR",
        "validade_inicial": "2023-09-12 20:00:00",
        "mens": "METAR SBGR 122000Z 32005KT CAVOK 30/09 Q1016=",
        "recebimento": "2023-09-12 19:57:43"
    },
    {
        "id_localidade": "SBGR",
        "validade_inicial": "2023-09-12 21:00:00",
        "mens": "METAR SBGR 122100Z 30006KT CAVOK 29/09 Q1017=",
        "recebimento": "2023-09-12 20:56:33"
    },
    {
        "id_localidade": "SBGR",
        "validade_inicial": "2023-09-12 22:00:00",
        "mens": "METAR SBGR 122200Z 00000KT CAVOK 23/12 Q1017=",
        "recebimento": "2023-09-12 21:59:12"
    },
    {
        "id_localidade": "SBGR",
        "validade_inicial": "2023-09-12 23:00:00",
        "mens": "METAR SBGR 122300Z 08002KT CAVOK 22/13 Q1017=",
        "recebimento": "2023-09-12 22:55:36"
    },
    {
        "id_localidade": "SBGR",
        "validade_inicial": "2023-09-13 00:00:00",
        "mens": "METAR SBGR 130000Z 13003KT 8000 NSC 21/13 Q1018=",
        "recebimento": "2023-09-12 23:56:30"
    },
    {
        "id_localidade": "SBGR",
        "validade_inicial": "2023-09-13 01:00:00",
        "mens": "METAR SBGR 130100Z 20001KT CAVOK 19/14 Q1018=",
        "recebimento": "2023-09-13 00:55:47"
    },
    {
        "id_localidade": "SBGR",
        "validade_inicial": "2023-09-13 02:00:00",
        "mens": "METAR SBGR 130200Z 09002KT CAVOK 19/14 Q1018=",
        "recebimento": "2023-09-13 01:55:05"
    },
    {
        "id_localidade": "SBGR",
        "validade_inicial": "2023-09-13 03:00:00",
        "mens": "METAR SBGR 130300Z 09001KT CAVOK 18/13 Q1018=",
        "recebimento": "2023-09-13 02:55:09"
    },
    {
        "id_localidade": "SBGR",
        "validade_inicial": "2023-09-13 04:00:00",
        "mens": "METAR COR SBGR 130400Z 07003KT CAVOK 19/08 Q1018=",
        "recebimento": "2023-09-13 04:15:58"
    },
    {
        "id_localidade": "SBGR",
        "validade_inicial": "2023-09-13 05:00:00",
        "mens": "METAR SBGR 130500Z 06004KT CAVOK 18/13 Q1017=",
        "recebimento": "2023-09-13 04:58:01"
    },
    {
        "id_localidade": "SBGR",
        "validade_inicial": "2023-09-13 06:00:00",
        "mens": "METAR SBGR 130600Z 09002KT CAVOK 16/13 Q1016=",
        "recebimento": "2023-09-13 05:59:05"
    },
    {
        "id_localidade": "SBGR",
        "validade_inicial": "2023-09-13 07:00:00",
        "mens": "METAR SBGR 130700Z 09008KT CAVOK 19/13 Q1015=",
        "recebimento": "2023-09-13 06:58:35"
    },
    {
        "id_localidade": "SBGR",
        "validade_inicial": "2023-09-13 08:00:00",
        "mens": "METAR SBGR 130800Z 07007KT CAVOK 17/12 Q1015=",
        "recebimento": "2023-09-13 07:58:28"
    },
    {
        "id_localidade": "SBGR",
        "validade_inicial": "2023-09-13 09:00:00",
        "mens": "METAR SBGR 130900Z 08007KT CAVOK 17/13 Q1015=",
        "recebimento": "2023-09-13 08:56:45"
    },
    {
        "id_localidade": "SBGR",
        "validade_inicial": "2023-09-13 10:00:00",
        "mens": "METAR SBGR 131000Z 08007KT CAVOK 18/13 Q1016=",
        "recebimento": "2023-09-13 09:57:54"
    },
    {
        "id_localidade": "SBGR",
        "validade_inicial": "2023-09-13 11:00:00",
        "mens": "METAR SBGR 131100Z 07008KT CAVOK 20/14 Q1016=",
        "recebimento": "2023-09-13 10:59:43"
    },
    {
        "id_localidade": "SBGR",
        "validade_inicial": "2023-09-13 12:00:00",
        "mens": "METAR SBGR 131200Z 08008KT CAVOK 24/13 Q1016=",
        "recebimento": "2023-09-13 11:55:57"
    },
    {
        "id_localidade": "SBGR",
        "validade_inicial": "2023-09-13 13:00:00",
        "mens": "METAR COR SBGR 131300Z 01007KT CAVOK 28/12 Q1016=",
        "recebimento": "2023-09-13 13:11:21"
    },
    {
        "id_localidade": "SBGR",
        "validade_inicial": "2023-09-13 14:00:00",
        "mens": "METAR SBGR 131400Z 33011KT CAVOK 30/11 Q1016=",
        "recebimento": "2023-09-13 13:58:12"
    },
    {
        "id_localidade": "SBGR",
        "validade_inicial": "2023-09-13 15:00:00",
        "mens": "METAR SBGR 131500Z 32010G20KT CAVOK 32/12 Q1015=",
        "recebimento": "2023-09-13 14:57:35"
    },
    {
        "id_localidade": "SBGR",
        "validade_inicial": "2023-09-13 16:00:00",
        "mens": "METAR SBGR 131600Z 31013KT CAVOK 33/11 Q1013=",
        "recebimento": "2023-09-13 15:57:34"
    },
    {
        "id_localidade": "SBGR",
        "validade_inicial": "2023-09-13 17:00:00",
        "mens": "METAR SBGR 131700Z 32014KT CAVOK 33/11 Q1012=",
        "recebimento": "2023-09-13 16:55:16"
    },
    {
        "id_localidade": "SBGR",
        "validade_inicial": "2023-09-13 18:00:00",
        "mens": "METAR SBGR 131800Z 33011KT CAVOK 33/11 Q1011=",
        "recebimento": "2023-09-13 17:56:25"
    },
    {
        "id_localidade": "SBGR",
        "validade_inicial": "2023-09-13 19:00:00",
        "mens": "METAR SBGR 131900Z 33009KT CAVOK 33/11 Q1011=",
        "recebimento": "2023-09-13 18:57:06"
    },
    {
        "id_localidade": "SBGR",
        "validade_inicial": "2023-09-13 20:00:00",
        "mens": "METAR SBGR 132000Z 33009KT CAVOK 32/11 Q1011=",
        "recebimento": "2023-09-13 20:02:21"
    },
    {
        "id_localidade": "SBGR",
        "validade_inicial": "2023-09-13 21:00:00",
        "mens": "METAR SBGR 132100Z 34006KT CAVOK 31/12 Q1011=",
        "recebimento": "2023-09-13 20:56:09"
    },
    {
        "id_localidade": "SBGR",
        "validade_inicial": "2023-09-13 22:00:00",
        "mens": "METAR SBGR 132200Z 36006KT CAVOK 29/12 Q1012=",
        "recebimento": "2023-09-13 21:57:09"
    },
    {
        "id_localidade": "SBGR",
        "validade_inicial": "2023-09-13 23:00:00",
        "mens": "METAR SBGR 132300Z 35006KT CAVOK 27/13 Q1012=",
        "recebimento": "2023-09-13 22:55:12"
    },
    {
        "id_localidade": "SBGR",
        "validade_inicial": "2023-09-14 00:00:00",
        "mens": "METAR SBGR 140000Z 34005KT CAVOK 28/12 Q1012=",
        "recebimento": "2023-09-13 23:55:18"
    },
    {
        "id_localidade": "SBGR",
        "validade_inicial": "2023-09-14 01:00:00",
        "mens": "METAR SBGR 140100Z 01007KT CAVOK 28/11 Q1013=",
        "recebimento": "2023-09-14 00:59:57"
    },
    {
        "id_localidade": "SBGR",
        "validade_inicial": "2023-09-14 02:00:00",
        "mens": "METAR SBGR 140200Z VRB02KT CAVOK 26/13 Q1013=",
        "recebimento": "2023-09-14 02:01:59"
    },
    {
        "id_localidade": "SBGR",
        "validade_inicial": "2023-09-14 03:00:00",
        "mens": "METAR SBGR 140300Z 28016KT CAVOK 27/12 Q1014=",
        "recebimento": "2023-09-14 03:00:07"
    },
    {
        "id_localidade": "SBGR",
        "validade_inicial": "2023-09-14 04:00:00",
        "mens": "METAR SBGR 140400Z 26017KT CAVOK 25/15 Q1014=",
        "recebimento": "2023-09-14 04:00:52"
    },
    {
        "id_localidade": "SBGR",
        "validade_inicial": "2023-09-14 05:00:00",
        "mens": "METAR SBGR 140500Z 26013KT CAVOK 23/15 Q1014=",
        "recebimento": "2023-09-14 04:58:40"
    },
    {
        "id_localidade": "SBGR",
        "validade_inicial": "2023-09-14 06:00:00",
        "mens": "METAR SBGR 140600Z 29007KT CAVOK 22/14 Q1014=",
        "recebimento": "2023-09-14 05:59:29"
    },
    {
        "id_localidade": "SBGR",
        "validade_inicial": "2023-09-14 07:00:00",
        "mens": "METAR SBGR 140700Z 32005KT CAVOK 21/15 Q1014=",
        "recebimento": "2023-09-14 06:59:39"
    },
    {
        "id_localidade": "SBGR",
        "validade_inicial": "2023-09-14 08:00:00",
        "mens": "METAR SBGR 140800Z 35005KT CAVOK 20/15 Q1014=",
        "recebimento": "2023-09-14 08:00:01"
    },
    {
        "id_localidade": "SBGR",
        "validade_inicial": "2023-09-14 09:00:00",
        "mens": "METAR SBGR 140900Z 36004KT CAVOK 20/15 Q1014=",
        "recebimento": "2023-09-14 08:59:46"
    },
    {
        "id_localidade": "SBGR",
        "validade_inicial": "2023-09-14 10:00:00",
        "mens": "METAR SBGR 141000Z 34006KT CAVOK 21/14 Q1014=",
        "recebimento": "2023-09-14 09:59:40"
    },
    {
        "id_localidade": "SBGR",
        "validade_inicial": "2023-09-14 11:00:00",
        "mens": "METAR SBGR 141100Z 32005KT CAVOK 23/14 Q1015=",
        "recebimento": "2023-09-14 11:00:45"
    },
    {
        "id_localidade": "SBGR",
        "validade_inicial": "2023-09-14 12:00:00",
        "mens": "METAR SBGR 141200Z 29010KT CAVOK 23/14 Q1017=",
        "recebimento": "2023-09-14 11:59:52"
    },
    {
        "id_localidade": "SBGR",
        "validade_inicial": "2023-09-14 13:00:00",
        "mens": "METAR SBGR 141300Z 26009KT CAVOK 23/15 Q1017=",
        "recebimento": "2023-09-14 12:58:05"
    },
    {
        "id_localidade": "SBGR",
        "validade_inicial": "2023-09-14 14:00:00",
        "mens": "METAR SBGR 141400Z 27013KT 9999 -RA SCT036 OVC100 22/15 Q1017=",
        "recebimento": "2023-09-14 14:00:52"
    },
    {
        "id_localidade": "SBGR",
        "validade_inicial": "2023-09-14 15:00:00",
        "mens": "METAR SBGR 141500Z 28010KT 9999 SCT033 OVC100 24/16 Q1017=",
        "recebimento": "2023-09-14 14:56:25"
    },
    {
        "id_localidade": "SBGR",
        "validade_inicial": "2023-09-14 16:00:00",
        "mens": "METAR SBGR 141600Z 26013KT 9000 -RA BKN023 OVC100 21/16 Q1018=",
        "recebimento": "2023-09-14 15:57:42"
    },
    {
        "id_localidade": "SBGR",
        "validade_inicial": "2023-09-14 17:00:00",
        "mens": "METAR SBGR 141700Z 28009KT 6000 -RA FEW009 OVC070 19/17 Q1018=",
        "recebimento": "2023-09-14 16:58:03"
    },
    {
        "id_localidade": "SBGR",
        "validade_inicial": "2023-09-14 18:00:00",
        "mens": "METAR SBGR 141800Z 29006KT 5000 -RA FEW009 OVC070 18/17 Q1018=",
        "recebimento": "2023-09-14 17:59:02"
    },
    {
        "id_localidade": "SBGR",
        "validade_inicial": "2023-09-14 19:00:00",
        "mens": "METAR SBGR 141900Z 26004KT 5000 -RA SCT011 OVC070 17/16 Q1018=",
        "recebimento": "2023-09-14 19:01:36"
    },
    {
        "id_localidade": "SBGR",
        "validade_inicial": "2023-09-14 19:35:00",
        "mens": "SPECI SBGR 141935Z 17002KT 4000 -RA BKN009 OVC070 17/16 Q1018=",
        "recebimento": "2023-09-14 19:39:27"
    },
    {
        "id_localidade": "SBGR",
        "validade_inicial": "2023-09-14 20:00:00",
        "mens": "METAR SBGR 142000Z 04002KT 5000 -RA BKN009 OVC070 17/17 Q1018=",
        "recebimento": "2023-09-14 19:57:05"
    },
    {
        "id_localidade": "SBGR",
        "validade_inicial": "2023-09-14 21:00:00",
        "mens": "METAR SBGR 142100Z 19002KT 4000 -RA BKN009 OVC070 17/17 Q1019=",
        "recebimento": "2023-09-14 20:55:49"
    },
    {
        "id_localidade": "SBGR",
        "validade_inicial": "2023-09-14 21:20:00",
        "mens": "SPECI SBGR 142120Z 23005KT 4000 RA BKN007 OVC070 17/17 Q1019=",
        "recebimento": "2023-09-14 21:24:57"
    },
    {
        "id_localidade": "SBGR",
        "validade_inicial": "2023-09-14 22:00:00",
        "mens": "METAR SBGR 142200Z 15008KT 4000 -RA BKN007 OVC070 15/15 Q1019 RERA=",
        "recebimento": "2023-09-14 21:56:10"
    },
    {
        "id_localidade": "SBGR",
        "validade_inicial": "2023-09-14 23:00:00",
        "mens": "METAR SBGR 142300Z 15004KT 6000 -RA BKN008 OVC070 14/13 Q1020=",
        "recebimento": "2023-09-14 22:58:02"
    },
    {
        "id_localidade": "SBGR",
        "validade_inicial": "2023-09-15 00:00:00",
        "mens": "METAR SBGR 150000Z 10003KT 9000 OVC009 14/13 Q1021=",
        "recebimento": "2023-09-14 23:59:53"
    },
    {
        "id_localidade": "SBGR",
        "validade_inicial": "2023-09-15 01:00:00",
        "mens": "METAR SBGR 150100Z 15002KT 9000 -DZ OVC009 14/14 Q1021=",
        "recebimento": "2023-09-15 00:59:26"
    },
    {
        "id_localidade": "SBGR",
        "validade_inicial": "2023-09-15 02:00:00",
        "mens": "METAR SBGR 150200Z 12002KT 9000 OVC008 14/14 Q1022=",
        "recebimento": "2023-09-15 01:56:49"
    },
    {
        "id_localidade": "SBGR",
        "validade_inicial": "2023-09-15 03:00:00",
        "mens": "METAR SBGR 150300Z 17005KT 3000 -RA BR OVC007 14/13 Q1022=",
        "recebimento": "2023-09-15 02:59:24"
    },
    {
        "id_localidade": "SBGR",
        "validade_inicial": "2023-09-15 03:40:00",
        "mens": "SPECI SBGR 150340Z 19003KT 8000 BKN008 BKN013 13/13 Q1022=",
        "recebimento": "2023-09-15 03:43:03"
    },
    {
        "id_localidade": "SBGR",
        "validade_inicial": "2023-09-15 04:00:00",
        "mens": "METAR SBGR 150400Z 00000KT 9000 BKN010 13/13 Q1022=",
        "recebimento": "2023-09-15 03:56:06"
    },
    {
        "id_localidade": "SBGR",
        "validade_inicial": "2023-09-15 05:00:00",
        "mens": "METAR SBGR 150500Z 14002KT 9999 BKN008 14/13 Q1021=",
        "recebimento": "2023-09-15 04:54:25"
    },
    {
        "id_localidade": "SBGR",
        "validade_inicial": "2023-09-15 06:00:00",
        "mens": "METAR SBGR 150600Z 11005KT 9999 BKN009 BKN021 14/13 Q1020=",
        "recebimento": "2023-09-15 05:55:33"
    },
    {
        "id_localidade": "SBGR",
        "validade_inicial": "2023-09-15 07:00:00",
        "mens": "METAR SBGR 150700Z 12005KT 9999 BKN010 BKN015 14/13 Q1019=",
        "recebimento": "2023-09-15 06:55:21"
    },
    {
        "id_localidade": "SBGR",
        "validade_inicial": "2023-09-15 08:00:00",
        "mens": "METAR SBGR 150800Z 11005KT 8000 -RA BKN011 OVC015 13/12 Q1020=",
        "recebimento": "2023-09-15 07:54:12"
    },
    {
        "id_localidade": "SBGR",
        "validade_inicial": "2023-09-15 09:00:00",
        "mens": "METAR SBGR 150900Z 15005KT 5000 -RA BR BKN007 OVC011 13/13 Q1020=",
        "recebimento": "2023-09-15 08:59:17"
    },
    {
        "id_localidade": "SBGR",
        "validade_inicial": "2023-09-15 10:00:00",
        "mens": "METAR SBGR 151000Z 15003KT 9000 -RA BKN011 OVC025 14/13 Q1022=",
        "recebimento": "2023-09-15 09:59:19"
    },
    {
        "id_localidade": "SBGR",
        "validade_inicial": "2023-09-15 11:00:00",
        "mens": "METAR COR SBGR 151100Z 13004KT 9999 OVC013 12/12 Q1022=",
        "recebimento": "2023-09-15 11:00:57"
    },
    {
        "id_localidade": "SBGR",
        "validade_inicial": "2023-09-15 12:00:00",
        "mens": "METAR SBGR 151200Z 13005KT 9999 SCT013 BKN021 16/12 Q1022=",
        "recebimento": "2023-09-15 12:02:51"
    },
    {
        "id_localidade": "SBGR",
        "validade_inicial": "2023-09-15 13:00:00",
        "mens": "METAR SBGR 151300Z 14004KT 9999 BKN026 17/13 Q1024=",
        "recebimento": "2023-09-15 12:59:56"
    },
    {
        "id_localidade": "SBGR",
        "validade_inicial": "2023-09-15 14:00:00",
        "mens": "METAR SBGR 151400Z 14004KT 9999 BKN030 17/13 Q1023=",
        "recebimento": "2023-09-15 14:04:15"
    },
    {
        "id_localidade": "SBGR",
        "validade_inicial": "2023-09-15 15:00:00",
        "mens": "METAR SBGR 151500Z 06007KT 9999 BKN030 19/12 Q1022=",
        "recebimento": "2023-09-15 15:00:02"
    },
    {
        "id_localidade": "SBGR",
        "validade_inicial": "2023-09-15 16:00:00",
        "mens": "METAR SBGR 151600Z 06010KT 9999 BKN030 21/13 Q1020=",
        "recebimento": "2023-09-15 15:59:22"
    },
    {
        "id_localidade": "SBGR",
        "validade_inicial": "2023-09-15 17:00:00",
        "mens": "METAR SBGR 151700Z 10007KT 9999 BKN030 20/12 Q1020=",
        "recebimento": "2023-09-15 16:55:09"
    },
    {
        "id_localidade": "SBGR",
        "validade_inicial": "2023-09-15 18:00:00",
        "mens": "METAR SBGR 151800Z 05005KT 9999 BKN036 21/12 Q1019=",
        "recebimento": "2023-09-15 17:55:12"
    },
    {
        "id_localidade": "SBGR",
        "validade_inicial": "2023-09-15 19:00:00",
        "mens": "METAR SBGR 151900Z 16010KT 9999 BKN033 19/13 Q1020=",
        "recebimento": "2023-09-15 18:55:30"
    },
    {
        "id_localidade": "SBGR",
        "validade_inicial": "2023-09-15 20:00:00",
        "mens": "METAR SBGR 152000Z 14008KT 9999 SCT015 SCT021 17/13 Q1021=",
        "recebimento": "2023-09-15 19:57:20"
    },
    {
        "id_localidade": "SBGR",
        "validade_inicial": "2023-09-15 21:00:00",
        "mens": "METAR SBGR 152100Z 12007KT 9999 BKN015 16/12 Q1021=",
        "recebimento": "2023-09-15 20:55:07"
    },
    {
        "id_localidade": "SBGR",
        "validade_inicial": "2023-09-15 22:00:00",
        "mens": "METAR SBGR 152200Z 12007KT 9999 OVC013 15/12 Q1021=",
        "recebimento": "2023-09-15 21:55:09"
    },
    {
        "id_localidade": "SBGR",
        "validade_inicial": "2023-09-15 23:00:00",
        "mens": "METAR SBGR 152300Z 08010KT 9999 OVC013 15/13 Q1021=",
        "recebimento": "2023-09-15 22:55:27"
    },
    {
        "id_localidade": "SBGR",
        "validade_inicial": "2023-09-16 00:00:00",
        "mens": "METAR SBGR 160000Z 07011KT 9999 OVC011 15/12 Q1021=",
        "recebimento": "2023-09-15 23:55:41"
    },
    {
        "id_localidade": "SBGR",
        "validade_inicial": "2023-09-16 01:00:00",
        "mens": "METAR SBGR 160100Z 08008KT 9999 OVC011 15/13 Q1021=",
        "recebimento": "2023-09-16 00:55:09"
    },
    {
        "id_localidade": "SBGR",
        "validade_inicial": "2023-09-16 02:00:00",
        "mens": "METAR SBGR 160200Z 15004KT 9999 OVC011 15/13 Q1022=",
        "recebimento": "2023-09-16 01:59:16"
    },
    {
        "id_localidade": "SBGR",
        "validade_inicial": "2023-09-16 03:00:00",
        "mens": "METAR SBGR 160300Z 11003KT 9999 OVC013 15/13 Q1022=",
        "recebimento": "2023-09-16 02:57:16"
    },
    {
        "id_localidade": "SBGR",
        "validade_inicial": "2023-09-16 04:00:00",
        "mens": "METAR SBGR 160400Z 05008KT 9999 BKN017 15/13 Q1021=",
        "recebimento": "2023-09-16 03:56:25"
    },
    {
        "id_localidade": "SBGR",
        "validade_inicial": "2023-09-16 05:00:00",
        "mens": "METAR SBGR 160500Z 05009KT CAVOK 14/13 Q1020=",
        "recebimento": "2023-09-16 04:55:54"
    },
    {
        "id_localidade": "SBGR",
        "validade_inicial": "2023-09-16 06:00:00",
        "mens": "METAR SBGR 160600Z 08007KT 9999 FEW009 14/13 Q1019=",
        "recebimento": "2023-09-16 05:57:57"
    },
    {
        "id_localidade": "SBGR",
        "validade_inicial": "2023-09-16 07:00:00",
        "mens": "METAR SBGR 160700Z 06010KT 9999 BKN009 14/13 Q1018=",
        "recebimento": "2023-09-16 06:55:29"
    },
    {
        "id_localidade": "SBGR",
        "validade_inicial": "2023-09-16 08:00:00",
        "mens": "METAR SBGR 160800Z 06008KT 9999 BKN009 14/13 Q1019=",
        "recebimento": "2023-09-16 07:56:38"
    },
    {
        "id_localidade": "SBGR",
        "validade_inicial": "2023-09-16 09:00:00",
        "mens": "METAR SBGR 160900Z 06009KT 9999 OVC009 14/13 Q1019=",
        "recebimento": "2023-09-16 08:55:36"
    },
    {
        "id_localidade": "SBGR",
        "validade_inicial": "2023-09-16 10:00:00",
        "mens": "METAR SBGR 161000Z 06008KT 9999 BKN007 BKN009 15/13 Q1020=",
        "recebimento": "2023-09-16 09:56:41"
    },
    {
        "id_localidade": "SBGR",
        "validade_inicial": "2023-09-16 11:00:00",
        "mens": "METAR SBGR 161100Z 07007KT 9999 BKN009 15/14 Q1021=",
        "recebimento": "2023-09-16 10:56:49"
    },
    {
        "id_localidade": "SBGR",
        "validade_inicial": "2023-09-16 12:00:00",
        "mens": "METAR SBGR 161200Z 08005KT 050V120 9999 BKN011 17/14 Q1021=",
        "recebimento": "2023-09-16 11:57:32"
    },
    {
        "id_localidade": "SBGR",
        "validade_inicial": "2023-09-16 12:18:00",
        "mens": "SPECI SBGR 161218Z 06005KT 9999 SCT013 18/14 Q1021=",
        "recebimento": "2023-09-16 12:20:53"
    },
    {
        "id_localidade": "SBGR",
        "validade_inicial": "2023-09-16 13:00:00",
        "mens": "METAR SBGR 161300Z 08004KT 9999 FEW015 19/14 Q1021=",
        "recebimento": "2023-09-16 12:57:20"
    },
    {
        "id_localidade": "SBGR",
        "validade_inicial": "2023-09-16 14:00:00",
        "mens": "METAR SBGR 161400Z 18003KT CAVOK 22/15 Q1020=",
        "recebimento": "2023-09-16 13:56:58"
    },
    {
        "id_localidade": "SBGR",
        "validade_inicial": "2023-09-16 15:00:00",
        "mens": "METAR SBGR 161500Z 11002KT 9999 SCT040 24/16 Q1019=",
        "recebimento": "2023-09-16 14:57:22"
    },
    {
        "id_localidade": "SBGR",
        "validade_inicial": "2023-09-16 16:00:00",
        "mens": "METAR SBGR 161600Z 29003KT 9999 SCT045 26/16 Q1018=",
        "recebimento": "2023-09-16 15:57:19"
    },
    {
        "id_localidade": "SBGR",
        "validade_inicial": "2023-09-16 17:00:00",
        "mens": "METAR SBGR 161700Z 31007KT CAVOK 29/15 Q1017=",
        "recebimento": "2023-09-16 16:56:26"
    },
    {
        "id_localidade": "SBGR",
        "validade_inicial": "2023-09-16 18:00:00",
        "mens": "METAR SBGR 161800Z 29009KT CAVOK 29/14 Q1016=",
        "recebimento": "2023-09-16 17:56:36"
    },
    {
        "id_localidade": "SBGR",
        "validade_inicial": "2023-09-16 19:00:00",
        "mens": "METAR SBGR 161900Z 30007KT CAVOK 30/14 Q1016=",
        "recebimento": "2023-09-16 18:58:07"
    },
    {
        "id_localidade": "SBGR",
        "validade_inicial": "2023-09-16 20:00:00",
        "mens": "METAR SBGR 162000Z 30008KT CAVOK 29/14 Q1016=",
        "recebimento": "2023-09-16 19:58:26"
    },
    {
        "id_localidade": "SBGR",
        "validade_inicial": "2023-09-16 21:00:00",
        "mens": "METAR SBGR 162100Z 32004KT CAVOK 28/14 Q1016=",
        "recebimento": "2023-09-16 20:55:13"
    },
    {
        "id_localidade": "SBGR",
        "validade_inicial": "2023-09-16 22:00:00",
        "mens": "METAR SBGR 162200Z 09002KT CAVOK 23/17 Q1016=",
        "recebimento": "2023-09-16 21:55:25"
    },
    {
        "id_localidade": "SBGR",
        "validade_inicial": "2023-09-16 23:00:00",
        "mens": "METAR SBGR 162300Z 18002KT CAVOK 20/17 Q1017=",
        "recebimento": "2023-09-16 22:55:36"
    },
    {
        "id_localidade": "SBGR",
        "validade_inicial": "2023-09-17 00:00:00",
        "mens": "METAR SBGR 170000Z 13003KT CAVOK 21/17 Q1018=",
        "recebimento": "2023-09-16 23:57:20"
    },
    {
        "id_localidade": "SBGR",
        "validade_inicial": "2023-09-17 01:00:00",
        "mens": "METAR SBGR 170100Z 00000KT CAVOK 19/17 Q1018=",
        "recebimento": "2023-09-17 00:58:34"
    },
    {
        "id_localidade": "SBGR",
        "validade_inicial": "2023-09-17 02:00:00",
        "mens": "METAR SBGR 170200Z 09002KT 9000 NSC 18/17 Q1018=",
        "recebimento": "2023-09-17 01:59:28"
    },
    {
        "id_localidade": "SBGR",
        "validade_inicial": "2023-09-17 03:00:00",
        "mens": "METAR SBGR 170300Z 00000KT 9000 NSC 18/16 Q1018=",
        "recebimento": "2023-09-17 03:00:03"
    },
    {
        "id_localidade": "SBGR",
        "validade_inicial": "2023-09-17 04:00:00",
        "mens": "METAR SBGR 170400Z 00000KT 8000 NSC 17/17 Q1018=",
        "recebimento": "2023-09-17 04:01:45"
    },
    {
        "id_localidade": "SBGR",
        "validade_inicial": "2023-09-17 05:00:00",
        "mens": "METAR SBGR 170500Z 10002KT 8000 NSC 17/16 Q1018=",
        "recebimento": "2023-09-17 04:59:15"
    },
    {
        "id_localidade": "SBGR",
        "validade_inicial": "2023-09-17 06:00:00",
        "mens": "METAR SBGR 170600Z 07006KT 9000 NSC 17/16 Q1018=",
        "recebimento": "2023-09-17 06:01:33"
    },
    {
        "id_localidade": "SBGR",
        "validade_inicial": "2023-09-17 07:00:00",
        "mens": "METAR SBGR 170700Z 07007KT CAVOK 17/16 Q1018=",
        "recebimento": "2023-09-17 06:58:29"
    },
    {
        "id_localidade": "SBGR",
        "validade_inicial": "2023-09-17 08:00:00",
        "mens": "METAR SBGR 170800Z 07007KT CAVOK 17/16 Q1019=",
        "recebimento": "2023-09-17 08:10:36"
    },
    {
        "id_localidade": "SBGR",
        "validade_inicial": "2023-09-17 09:00:00",
        "mens": "METAR SBGR 170900Z 08004KT CAVOK 17/16 Q1019=",
        "recebimento": "2023-09-17 09:03:19"
    },
    {
        "id_localidade": "SBGR",
        "validade_inicial": "2023-09-17 10:00:00",
        "mens": "METAR SBGR 171000Z 07006KT CAVOK 18/17 Q1020=",
        "recebimento": "2023-09-17 09:58:11"
    },
    {
        "id_localidade": "SBGR",
        "validade_inicial": "2023-09-17 11:00:00",
        "mens": "METAR SBGR 171100Z 07010KT CAVOK 19/18 Q1021=",
        "recebimento": "2023-09-17 10:56:38"
    },
    {
        "id_localidade": "SBGR",
        "validade_inicial": "2023-09-17 12:00:00",
        "mens": "METAR SBGR 171200Z 06008KT CAVOK 22/18 Q1021=",
        "recebimento": "2023-09-17 11:57:30"
    },
    {
        "id_localidade": "SBGR",
        "validade_inicial": "2023-09-17 13:00:00",
        "mens": "METAR SBGR 171300Z 07006KT CAVOK 25/18 Q1021=",
        "recebimento": "2023-09-17 13:02:54"
    },
    {
        "id_localidade": "SBGR",
        "validade_inicial": "2023-09-17 14:00:00",
        "mens": "METAR SBGR 171400Z 33004KT CAVOK 28/18 Q1020=",
        "recebimento": "2023-09-17 13:59:11"
    },
    {
        "id_localidade": "SBGR",
        "validade_inicial": "2023-09-17 15:00:00",
        "mens": "METAR SBGR 171500Z 33008KT CAVOK 31/12 Q1020=",
        "recebimento": "2023-09-17 14:56:35"
    },
    {
        "id_localidade": "SBGR",
        "validade_inicial": "2023-09-17 16:00:00",
        "mens": "METAR SBGR 171600Z 30009KT CAVOK 32/12 Q1019=",
        "recebimento": "2023-09-17 15:58:28"
    },
    {
        "id_localidade": "SBGR",
        "validade_inicial": "2023-09-17 17:00:00",
        "mens": "METAR SBGR 171700Z 32008KT CAVOK 32/12 Q1018=",
        "recebimento": "2023-09-17 17:00:59"
    },
    {
        "id_localidade": "SBGR",
        "validade_inicial": "2023-09-17 18:00:00",
        "mens": "METAR SBGR 171800Z 30006KT 250V340 CAVOK 33/12 Q1017=",
        "recebimento": "2023-09-17 17:56:47"
    },
    {
        "id_localidade": "SBGR",
        "validade_inicial": "2023-09-17 19:00:00",
        "mens": "METAR SBGR 171900Z 28011KT CAVOK 33/07 Q1017=",
        "recebimento": "2023-09-17 18:55:41"
    },
    {
        "id_localidade": "SBGR",
        "validade_inicial": "2023-09-17 20:00:00",
        "mens": "METAR SBGR 172000Z 29007KT CAVOK 32/08 Q1017=",
        "recebimento": "2023-09-17 19:57:43"
    },
    {
        "id_localidade": "SBGR",
        "validade_inicial": "2023-09-17 21:00:00",
        "mens": "METAR SBGR 172100Z 17005KT CAVOK 29/12 Q1018=",
        "recebimento": "2023-09-17 20:54:12"
    },
    {
        "id_localidade": "SBGR",
        "validade_inicial": "2023-09-17 22:00:00",
        "mens": "METAR SBGR 172200Z 17003KT 140V200 CAVOK 25/14 Q1018=",
        "recebimento": "2023-09-17 21:56:31"
    },
    {
        "id_localidade": "SBGR",
        "validade_inicial": "2023-09-17 23:00:00",
        "mens": "METAR SBGR 172300Z 07002KT CAVOK 22/15 Q1019=",
        "recebimento": "2023-09-17 23:00:09"
    },
    {
        "id_localidade": "SBGR",
        "validade_inicial": "2023-09-18 00:00:00",
        "mens": "METAR SBGR 180000Z 06002KT CAVOK 21/15 Q1019=",
        "recebimento": "2023-09-17 23:56:07"
    },
    {
        "id_localidade": "SBGR",
        "validade_inicial": "2023-09-18 01:00:00",
        "mens": "METAR SBGR 180100Z 06002KT CAVOK 20/15 Q1019=",
        "recebimento": "2023-09-18 00:53:03"
    },
    {
        "id_localidade": "SBGR",
        "validade_inicial": "2023-09-18 02:00:00",
        "mens": "METAR SBGR 180200Z 08006KT CAVOK 20/14 Q1020=",
        "recebimento": "2023-09-18 01:54:10"
    },
    {
        "id_localidade": "SBGR",
        "validade_inicial": "2023-09-18 03:00:00",
        "mens": "METAR SBGR 180300Z 09003KT CAVOK 20/14 Q1020=",
        "recebimento": "2023-09-18 02:54:44"
    },
    {
        "id_localidade": "SBGR",
        "validade_inicial": "2023-09-18 04:00:00",
        "mens": "METAR SBGR 180400Z 00000KT CAVOK 18/15 Q1019=",
        "recebimento": "2023-09-18 04:00:42"
    },
    {
        "id_localidade": "SBGR",
        "validade_inicial": "2023-09-18 05:00:00",
        "mens": "METAR SBGR 180500Z 00000KT CAVOK 18/16 Q1019=",
        "recebimento": "2023-09-18 04:53:25"
    },
    {
        "id_localidade": "SBGR",
        "validade_inicial": "2023-09-18 06:00:00",
        "mens": "METAR SBGR 180600Z 05005KT CAVOK 20/16 Q1019=",
        "recebimento": "2023-09-18 05:57:01"
    },
    {
        "id_localidade": "SBGR",
        "validade_inicial": "2023-09-18 07:00:00",
        "mens": "METAR SBGR 180700Z 09002KT CAVOK 18/16 Q1019=",
        "recebimento": "2023-09-18 06:57:32"
    },
    {
        "id_localidade": "SBGR",
        "validade_inicial": "2023-09-18 08:00:00",
        "mens": "METAR SBGR 180800Z 09003KT CAVOK 19/17 Q1019=",
        "recebimento": "2023-09-18 07:53:55"
    },
    {
        "id_localidade": "SBGR",
        "validade_inicial": "2023-09-18 09:00:00",
        "mens": "METAR SBGR 180900Z 09005KT CAVOK 20/17 Q1019=",
        "recebimento": "2023-09-18 08:55:06"
    },
    {
        "id_localidade": "SBGR",
        "validade_inicial": "2023-09-18 10:00:00",
        "mens": "METAR SBGR 181000Z 04004KT CAVOK 20/17 Q1020=",
        "recebimento": "2023-09-18 09:56:21"
    },
    {
        "id_localidade": "SBGR",
        "validade_inicial": "2023-09-18 11:00:00",
        "mens": "METAR SBGR 181100Z 05004KT CAVOK 24/17 Q1021=",
        "recebimento": "2023-09-18 10:57:02"
    },
    {
        "id_localidade": "SBGR",
        "validade_inicial": "2023-09-18 12:00:00",
        "mens": "METAR SBGR 181200Z 08006KT CAVOK 26/17 Q1021=",
        "recebimento": "2023-09-18 11:56:10"
    },
    {
        "id_localidade": "SBGR",
        "validade_inicial": "2023-09-18 13:00:00",
        "mens": "METAR SBGR 181300Z 02007KT CAVOK 29/16 Q1021=",
        "recebimento": "2023-09-18 12:57:09"
    },
    {
        "id_localidade": "SBGR",
        "validade_inicial": "2023-09-18 14:00:00",
        "mens": "METAR SBGR 181400Z 04007KT CAVOK 30/15 Q1020=",
        "recebimento": "2023-09-18 13:58:10"
    },
    {
        "id_localidade": "SBGR",
        "validade_inicial": "2023-09-18 15:00:00",
        "mens": "METAR SBGR 181500Z 31004KT CAVOK 31/15 Q1020=",
        "recebimento": "2023-09-18 14:58:25"
    },
    {
        "id_localidade": "SBGR",
        "validade_inicial": "2023-09-18 16:00:00",
        "mens": "METAR SBGR 181600Z 35008KT CAVOK 32/14 Q1019=",
        "recebimento": "2023-09-18 15:58:28"
    },
    {
        "id_localidade": "SBGR",
        "validade_inicial": "2023-09-18 17:00:00",
        "mens": "METAR SBGR 181700Z 30005KT CAVOK 32/13 Q1018=",
        "recebimento": "2023-09-18 16:57:33"
    },
    {
        "id_localidade": "SBGR",
        "validade_inicial": "2023-09-18 18:00:00",
        "mens": "METAR SBGR 181800Z 31005KT 9999 FEW040TCU SCT065 33/15 Q1017=",
        "recebimento": "2023-09-18 17:58:27"
    },
    {
        "id_localidade": "SBGR",
        "validade_inicial": "2023-09-18 19:00:00",
        "mens": "METAR SBGR 181900Z 32006KT 9999 FEW045TCU SCT065 BKN090 33/13 Q1017=",
        "recebimento": "2023-09-18 18:58:49"
    },
    {
        "id_localidade": "SBGR",
        "validade_inicial": "2023-09-18 20:00:00",
        "mens": "METAR SBGR 182000Z 30008KT 9999 VCTS FEW045CB SCT065 BKN090 32/13 Q1017=",
        "recebimento": "2023-09-18 19:57:40"
    },
    {
        "id_localidade": "SBGR",
        "validade_inicial": "2023-09-18 21:00:00",
        "mens": "METAR SBGR 182100Z 14006KT 9999 FEW045TCU BKN065 BKN100 26/16 Q1018=",
        "recebimento": "2023-09-18 20:58:56"
    },
    {
        "id_localidade": "SBGR",
        "validade_inicial": "2023-09-18 22:00:00",
        "mens": "METAR SBGR 182200Z 16006KT 9999 FEW040 BKN070 25/17 Q1019=",
        "recebimento": "2023-09-18 21:59:58"
    },
    {
        "id_localidade": "SBGR",
        "validade_inicial": "2023-09-18 23:00:00",
        "mens": "METAR SBGR 182300Z 00000KT CAVOK 24/16 Q1019=",
        "recebimento": "2023-09-18 22:58:22"
    },
    {
        "id_localidade": "SBGR",
        "validade_inicial": "2023-09-19 00:00:00",
        "mens": "METAR SBGR 190000Z 19002KT CAVOK 22/17 Q1020=",
        "recebimento": "2023-09-18 23:56:09"
    },
    {
        "id_localidade": "SBGR",
        "validade_inicial": "2023-09-19 01:00:00",
        "mens": "METAR SBGR 190100Z 13002KT CAVOK 23/15 Q1020=",
        "recebimento": "2023-09-19 00:57:59"
    },
    {
        "id_localidade": "SBGR",
        "validade_inicial": "2023-09-19 02:00:00",
        "mens": "METAR SBGR 190200Z 00000KT CAVOK 21/16 Q1020=",
        "recebimento": "2023-09-19 01:55:43"
    },
    {
        "id_localidade": "SBGR",
        "validade_inicial": "2023-09-19 03:00:00",
        "mens": "METAR SBGR 190300Z 09003KT CAVOK 22/16 Q1019=",
        "recebimento": "2023-09-19 02:56:54"
    },
    {
        "id_localidade": "SBGR",
        "validade_inicial": "2023-09-19 04:00:00",
        "mens": "METAR SBGR 190400Z 00000KT CAVOK 22/16 Q1019=",
        "recebimento": "2023-09-19 03:56:05"
    },
    {
        "id_localidade": "SBGR",
        "validade_inicial": "2023-09-19 05:00:00",
        "mens": "METAR SBGR 190500Z 36001KT CAVOK 20/16 Q1018=",
        "recebimento": "2023-09-19 04:57:38"
    },
    {
        "id_localidade": "SBGR",
        "validade_inicial": "2023-09-19 06:00:00",
        "mens": "METAR SBGR 190600Z 05001KT CAVOK 19/16 Q1018=",
        "recebimento": "2023-09-19 05:56:07"
    },
    {
        "id_localidade": "SBGR",
        "validade_inicial": "2023-09-19 07:00:00",
        "mens": "METAR SBGR 190700Z 07005KT CAVOK 20/16 Q1018=",
        "recebimento": "2023-09-19 06:56:11"
    },
    {
        "id_localidade": "SBGR",
        "validade_inicial": "2023-09-19 08:00:00",
        "mens": "METAR SBGR 190800Z 05004KT CAVOK 21/16 Q1018=",
        "recebimento": "2023-09-19 07:57:03"
    },
    {
        "id_localidade": "SBGR",
        "validade_inicial": "2023-09-19 09:00:00",
        "mens": "METAR SBGR 190900Z 09003KT CAVOK 20/16 Q1019=",
        "recebimento": "2023-09-19 08:56:29"
    },
    {
        "id_localidade": "SBGR",
        "validade_inicial": "2023-09-19 10:00:00",
        "mens": "METAR SBGR 191000Z 08002KT CAVOK 21/17 Q1020=",
        "recebimento": "2023-09-19 09:59:19"
    },
    {
        "id_localidade": "SBGR",
        "validade_inicial": "2023-09-19 11:00:00",
        "mens": "METAR SBGR 191100Z 07006KT 9000 NSC 22/17 Q1020=",
        "recebimento": "2023-09-19 10:57:32"
    },
    {
        "id_localidade": "SBGR",
        "validade_inicial": "2023-09-19 12:00:00",
        "mens": "METAR SBGR 191200Z 07006KT CAVOK 23/15 Q1020=",
        "recebimento": "2023-09-19 11:59:24"
    },
    {
        "id_localidade": "SBGR",
        "validade_inicial": "2023-09-19 13:00:00",
        "mens": "METAR SBGR 191300Z 06007KT CAVOK 25/15 Q1020=",
        "recebimento": "2023-09-19 12:57:30"
    },
    {
        "id_localidade": "SBGR",
        "validade_inicial": "2023-09-19 14:00:00",
        "mens": "METAR SBGR 191400Z 06008KT CAVOK 27/12 Q1020=",
        "recebimento": "2023-09-19 13:57:13"
    },
    {
        "id_localidade": "SBGR",
        "validade_inicial": "2023-09-19 15:00:00",
        "mens": "METAR SBGR 191500Z 04007KT CAVOK 29/13 Q1019=",
        "recebimento": "2023-09-19 14:58:43"
    },
    {
        "id_localidade": "SBGR",
        "validade_inicial": "2023-09-19 16:00:00",
        "mens": "METAR SBGR 191600Z 06007KT CAVOK 30/10 Q1018=",
        "recebimento": "2023-09-19 15:56:13"
    },
    {
        "id_localidade": "SBGR",
        "validade_inicial": "2023-09-19 17:00:00",
        "mens": "METAR SBGR 191700Z 09007KT CAVOK 31/08 Q1017=",
        "recebimento": "2023-09-19 16:59:38"
    },
    {
        "id_localidade": "SBGR",
        "validade_inicial": "2023-09-19 18:00:00",
        "mens": "METAR SBGR 191800Z 06007KT CAVOK 32/05 Q1016=",
        "recebimento": "2023-09-19 17:56:07"
    },
    {
        "id_localidade": "SBGR",
        "validade_inicial": "2023-09-19 19:00:00",
        "mens": "METAR SBGR 191900Z 08007KT CAVOK 32/09 Q1016=",
        "recebimento": "2023-09-19 18:55:47"
    },
    {
        "id_localidade": "SBGR",
        "validade_inicial": "2023-09-19 20:00:00",
        "mens": "METAR SBGR 192000Z 10007KT CAVOK 31/11 Q1016=",
        "recebimento": "2023-09-19 19:56:27"
    },
    {
        "id_localidade": "SBGR",
        "validade_inicial": "2023-09-19 21:00:00",
        "mens": "METAR SBGR 192100Z 13008KT CAVOK 27/14 Q1017=",
        "recebimento": "2023-09-19 20:57:01"
    },
    {
        "id_localidade": "SBGR",
        "validade_inicial": "2023-09-19 22:00:00",
        "mens": "METAR SBGR 192200Z 08005KT CAVOK 26/10 Q1017=",
        "recebimento": "2023-09-19 21:58:38"
    },
    {
        "id_localidade": "SBGR",
        "validade_inicial": "2023-09-19 23:00:00",
        "mens": "METAR SBGR 192300Z 22002KT CAVOK 23/12 Q1018=",
        "recebimento": "2023-09-19 22:56:49"
    },
    {
        "id_localidade": "SBGR",
        "validade_inicial": "2023-09-20 00:00:00",
        "mens": "METAR SBGR 200000Z 15002KT CAVOK 22/13 Q1019=",
        "recebimento": "2023-09-19 23:55:17"
    },
    {
        "id_localidade": "SBGR",
        "validade_inicial": "2023-09-20 01:00:00",
        "mens": "METAR SBGR 200100Z 15002KT CAVOK 22/14 Q1019=",
        "recebimento": "2023-09-20 00:56:51"
    },
    {
        "id_localidade": "SBGR",
        "validade_inicial": "2023-09-20 02:00:00",
        "mens": "METAR SBGR 200200Z 00000KT 8000 NSC 20/17 Q1021=",
        "recebimento": "2023-09-20 01:59:37"
    },
    {
        "id_localidade": "SBGR",
        "validade_inicial": "2023-09-20 02:10:00",
        "mens": "SPECI SBGR 200210Z 18004KT 8000 BKN013 20/18 Q1021=",
        "recebimento": "2023-09-20 02:13:02"
    },
    {
        "id_localidade": "SBGR",
        "validade_inicial": "2023-09-20 03:00:00",
        "mens": "METAR SBGR 200300Z 16005KT 9999 BKN013 20/17 Q1021=",
        "recebimento": "2023-09-20 02:58:04"
    },
    {
        "id_localidade": "SBGR",
        "validade_inicial": "2023-09-20 04:00:00",
        "mens": "METAR SBGR 200400Z 16004KT 9999 BKN013 19/17 Q1020=",
        "recebimento": "2023-09-20 03:57:16"
    },
    {
        "id_localidade": "SBGR",
        "validade_inicial": "2023-09-20 05:00:00",
        "mens": "METAR SBGR 200500Z 18003KT 9999 BKN015 19/16 Q1020=",
        "recebimento": "2023-09-20 04:57:03"
    },
    {
        "id_localidade": "SBGR",
        "validade_inicial": "2023-09-20 06:00:00",
        "mens": "METAR SBGR 200600Z 16005KT 9999 BKN015 19/16 Q1020=",
        "recebimento": "2023-09-20 05:57:53"
    },
    {
        "id_localidade": "SBGR",
        "validade_inicial": "2023-09-20 07:00:00",
        "mens": "METAR SBGR 200700Z 15004KT 9999 BKN015 19/16 Q1020=",
        "recebimento": "2023-09-20 07:00:57"
    },
    {
        "id_localidade": "SBGR",
        "validade_inicial": "2023-09-20 08:00:00",
        "mens": "METAR SBGR 200800Z 14003KT 9999 BKN015 18/16 Q1020=",
        "recebimento": "2023-09-20 07:54:46"
    },
    {
        "id_localidade": "SBGR",
        "validade_inicial": "2023-09-20 09:00:00",
        "mens": "METAR SBGR 200900Z 18003KT 6000 BKN015 18/16 Q1021=",
        "recebimento": "2023-09-20 08:59:52"
    },
    {
        "id_localidade": "SBGR",
        "validade_inicial": "2023-09-20 10:00:00",
        "mens": "METAR SBGR 201000Z 16002KT 8000 BKN017 19/16 Q1021=",
        "recebimento": "2023-09-20 10:00:49"
    },
    {
        "id_localidade": "SBGR",
        "validade_inicial": "2023-09-20 11:00:00",
        "mens": "METAR SBGR 201100Z 21003KT 9999 FEW017 21/16 Q1022=",
        "recebimento": "2023-09-20 10:58:01"
    },
    {
        "id_localidade": "SBGR",
        "validade_inicial": "2023-09-20 12:00:00",
        "mens": "METAR SBGR 201200Z 14002KT CAVOK 24/16 Q1021=",
        "recebimento": "2023-09-20 11:55:38"
    },
    {
        "id_localidade": "SBGR",
        "validade_inicial": "2023-09-20 13:00:00",
        "mens": "METAR SBGR 201300Z 11003KT CAVOK 25/14 Q1021=",
        "recebimento": "2023-09-20 13:00:10"
    },
    {
        "id_localidade": "SBGR",
        "validade_inicial": "2023-09-20 14:00:00",
        "mens": "METAR SBGR 201400Z 09005KT CAVOK 26/13 Q1021=",
        "recebimento": "2023-09-20 14:00:32"
    },
    {
        "id_localidade": "SBGR",
        "validade_inicial": "2023-09-20 15:00:00",
        "mens": "METAR SBGR 201500Z 14004KT CAVOK 28/14 Q1020=",
        "recebimento": "2023-09-20 15:02:06"
    },
    {
        "id_localidade": "SBGR",
        "validade_inicial": "2023-09-20 16:00:00",
        "mens": "METAR SBGR 201600Z 12005KT CAVOK 29/12 Q1019=",
        "recebimento": "2023-09-20 15:57:27"
    },
    {
        "id_localidade": "SBGR",
        "validade_inicial": "2023-09-20 17:00:00",
        "mens": "METAR SBGR 201700Z 11006KT CAVOK 30/13 Q1018=",
        "recebimento": "2023-09-20 16:55:03"
    },
    {
        "id_localidade": "SBGR",
        "validade_inicial": "2023-09-20 18:00:00",
        "mens": "METAR SBGR 201800Z 14004KT CAVOK 29/12 Q1017=",
        "recebimento": "2023-09-20 17:56:50"
    },
    {
        "id_localidade": "SBGR",
        "validade_inicial": "2023-09-20 19:00:00",
        "mens": "METAR SBGR 201900Z 13004KT CAVOK 30/13 Q1017=",
        "recebimento": "2023-09-20 18:55:24"
    },
    {
        "id_localidade": "SBGR",
        "validade_inicial": "2023-09-20 20:00:00",
        "mens": "METAR SBGR 202000Z 16007KT CAVOK 28/17 Q1017=",
        "recebimento": "2023-09-20 19:57:59"
    },
    {
        "id_localidade": "SBGR",
        "validade_inicial": "2023-09-20 21:00:00",
        "mens": "METAR SBGR 202100Z 16005KT CAVOK 26/18 Q1017=",
        "recebimento": "2023-09-20 20:56:31"
    },
    {
        "id_localidade": "SBGR",
        "validade_inicial": "2023-09-20 22:00:00",
        "mens": "METAR SBGR 202200Z 16004KT CAVOK 23/18 Q1018=",
        "recebimento": "2023-09-20 21:56:46"
    },
    {
        "id_localidade": "SBGR",
        "validade_inicial": "2023-09-20 23:00:00",
        "mens": "METAR SBGR 202300Z 13004KT CAVOK 22/18 Q1018=",
        "recebimento": "2023-09-20 22:55:04"
    },
    {
        "id_localidade": "SBGR",
        "validade_inicial": "2023-09-21 00:00:00",
        "mens": "METAR SBGR 210000Z 11005KT CAVOK 21/17 Q1019=",
        "recebimento": "2023-09-20 23:55:05"
    },
    {
        "id_localidade": "SBGR",
        "validade_inicial": "2023-09-21 01:00:00",
        "mens": "METAR SBGR 210100Z 11005KT CAVOK 20/16 Q1020=",
        "recebimento": "2023-09-21 00:55:23"
    },
    {
        "id_localidade": "SBGR",
        "validade_inicial": "2023-09-21 02:00:00",
        "mens": "METAR SBGR 210200Z 12003KT CAVOK 19/16 Q1020=",
        "recebimento": "2023-09-21 01:57:27"
    },
    {
        "id_localidade": "SBGR",
        "validade_inicial": "2023-09-21 03:00:00",
        "mens": "METAR SBGR 210300Z 13004KT CAVOK 18/16 Q1020=",
        "recebimento": "2023-09-21 02:56:52"
    },
    {
        "id_localidade": "SBGR",
        "validade_inicial": "2023-09-21 04:00:00",
        "mens": "METAR SBGR 210400Z 14004KT 8000 SCT011 18/16 Q1019=",
        "recebimento": "2023-09-21 03:55:15"
    },
    {
        "id_localidade": "SBGR",
        "validade_inicial": "2023-09-21 04:10:00",
        "mens": "SPECI SBGR 210410Z 13003KT 8000 BKN010 18/16 Q1019=",
        "recebimento": "2023-09-21 04:10:44"
    },
    {
        "id_localidade": "SBGR",
        "validade_inicial": "2023-09-21 05:00:00",
        "mens": "METAR SBGR 210500Z 16006KT 9999 BKN010 18/16 Q1019=",
        "recebimento": "2023-09-21 04:56:30"
    },
    {
        "id_localidade": "SBGR",
        "validade_inicial": "2023-09-21 06:00:00",
        "mens": "METAR SBGR 210600Z 17002KT 9999 BKN010 17/16 Q1019=",
        "recebimento": "2023-09-21 05:55:14"
    },
    {
        "id_localidade": "SBGR",
        "validade_inicial": "2023-09-21 07:00:00",
        "mens": "METAR SBGR 210700Z 00000KT 9999 SCT010 17/16 Q1018=",
        "recebimento": "2023-09-21 06:55:55"
    },
    {
        "id_localidade": "SBGR",
        "validade_inicial": "2023-09-21 08:00:00",
        "mens": "METAR SBGR 210800Z 12001KT 9999 SCT017 16/15 Q1018=",
        "recebimento": "2023-09-21 07:58:50"
    },
    {
        "id_localidade": "SBGR",
        "validade_inicial": "2023-09-21 08:45:00",
        "mens": "SPECI SBGR 210845Z 13003KT 8000 BKN013 18/16 Q1019=",
        "recebimento": "2023-09-21 08:45:44"
    },
    {
        "id_localidade": "SBGR",
        "validade_inicial": "2023-09-21 09:00:00",
        "mens": "METAR SBGR 210900Z 13003KT 8000 OVC013 18/16 Q1019=",
        "recebimento": "2023-09-21 08:55:53"
    },
    {
        "id_localidade": "SBGR",
        "validade_inicial": "2023-09-21 10:00:00",
        "mens": "METAR SBGR 211000Z 08006KT 8000 OVC009 18/17 Q1020=",
        "recebimento": "2023-09-21 09:57:45"
    },
    {
        "id_localidade": "SBGR",
        "validade_inicial": "2023-09-21 11:00:00",
        "mens": "METAR SBGR 211100Z 07006KT 8000 OVC009 19/17 Q1020=",
        "recebimento": "2023-09-21 11:00:55"
    },
    {
        "id_localidade": "SBGR",
        "validade_inicial": "2023-09-21 12:00:00",
        "mens": "METAR SBGR 211200Z 06007KT 8000 OVC009 20/18 Q1020=",
        "recebimento": "2023-09-21 11:58:51"
    },
    {
        "id_localidade": "SBGR",
        "validade_inicial": "2023-09-21 13:00:00",
        "mens": "METAR SBGR 211300Z 06009KT 9999 SCT009 22/18 Q1019=",
        "recebimento": "2023-09-21 13:04:58"
    },
    {
        "id_localidade": "SBGR",
        "validade_inicial": "2023-09-21 14:00:00",
        "mens": "METAR SBGR 211400Z 10005KT CAVOK 25/18 Q1019=",
        "recebimento": "2023-09-21 13:58:21"
    },
    {
        "id_localidade": "SBGR",
        "validade_inicial": "2023-09-21 15:00:00",
        "mens": "METAR SBGR 211500Z 14004KT CAVOK 26/18 Q1018=",
        "recebimento": "2023-09-21 14:57:35"
    },
    {
        "id_localidade": "SBGR",
        "validade_inicial": "2023-09-21 16:00:00",
        "mens": "METAR SBGR 211600Z 03005KT CAVOK 28/17 Q1016=",
        "recebimento": "2023-09-21 15:58:50"
    },
    {
        "id_localidade": "SBGR",
        "validade_inicial": "2023-09-21 17:00:00",
        "mens": "METAR SBGR 211700Z 24003KT CAVOK 30/17 Q1015=",
        "recebimento": "2023-09-21 16:59:32"
    },
    {
        "id_localidade": "SBGR",
        "validade_inicial": "2023-09-21 18:00:00",
        "mens": "METAR SBGR 211800Z 17002KT CAVOK 30/17 Q1015=",
        "recebimento": "2023-09-21 17:56:41"
    },
    {
        "id_localidade": "SBGR",
        "validade_inicial": "2023-09-21 19:00:00",
        "mens": "METAR SBGR 211900Z 23005KT CAVOK 30/19 Q1015=",
        "recebimento": "2023-09-21 18:55:10"
    },
    {
        "id_localidade": "SBGR",
        "validade_inicial": "2023-09-21 20:00:00",
        "mens": "METAR SBGR 212000Z 14007KT 6000 NSC 28/19 Q1015=",
        "recebimento": "2023-09-21 19:55:44"
    },
    {
        "id_localidade": "SBGR",
        "validade_inicial": "2023-09-21 21:00:00",
        "mens": "METAR SBGR 212100Z 18004KT 6000 NSC 24/19 Q1016=",
        "recebimento": "2023-09-21 20:59:33"
    },
    {
        "id_localidade": "SBGR",
        "validade_inicial": "2023-09-21 22:00:00",
        "mens": "METAR SBGR 212200Z 18004KT 6000 NSC 22/19 Q1017=",
        "recebimento": "2023-09-21 21:56:28"
    },
    {
        "id_localidade": "SBGR",
        "validade_inicial": "2023-09-21 23:00:00",
        "mens": "METAR SBGR 212300Z 18002KT 5000 BR NSC 21/19 Q1017=",
        "recebimento": "2023-09-21 22:55:54"
    },
    {
        "id_localidade": "SBGR",
        "validade_inicial": "2023-09-22 00:00:00",
        "mens": "METAR SBGR 220000Z 00000KT 4000 BR NSC 20/19 Q1018=",
        "recebimento": "2023-09-21 23:58:30"
    },
    {
        "id_localidade": "SBGR",
        "validade_inicial": "2023-09-22 01:00:00",
        "mens": "METAR SBGR 220100Z 00000KT 4000 BR NSC 19/18 Q1018=",
        "recebimento": "2023-09-22 00:59:04"
    },
    {
        "id_localidade": "SBGR",
        "validade_inicial": "2023-09-22 02:00:00",
        "mens": "METAR SBGR 220200Z 14001KT 4000 BR FEW040 18/18 Q1017=",
        "recebimento": "2023-09-22 01:59:04"
    },
    {
        "id_localidade": "SBGR",
        "validade_inicial": "2023-09-22 03:00:00",
        "mens": "METAR SBGR 220300Z 20002KT 5000 BR NSC 18/18 Q1017=",
        "recebimento": "2023-09-22 03:00:30"
    },
    {
        "id_localidade": "SBGR",
        "validade_inicial": "2023-09-22 04:00:00",
        "mens": "METAR SBGR 220400Z 00000KT 4000 BR NSC 18/17 Q1016=",
        "recebimento": "2023-09-22 03:58:25"
    },
    {
        "id_localidade": "SBGR",
        "validade_inicial": "2023-09-22 05:00:00",
        "mens": "METAR SBGR 220500Z 00000KT 4000 BR NSC 18/17 Q1016=",
        "recebimento": "2023-09-22 04:58:59"
    },
    {
        "id_localidade": "SBGR",
        "validade_inicial": "2023-09-22 06:00:00",
        "mens": "METAR SBGR 220600Z 08003KT 3500 BR NSC 18/17 Q1016=",
        "recebimento": "2023-09-22 06:00:33"
    },
    {
        "id_localidade": "SBGR",
        "validade_inicial": "2023-09-22 07:00:00",
        "mens": "METAR SBGR 220700Z 07005KT 3500 BR FEW005 18/17 Q1016=",
        "recebimento": "2023-09-22 06:58:33"
    },
    {
        "id_localidade": "SBGR",
        "validade_inicial": "2023-09-22 08:00:00",
        "mens": "METAR SBGR 220800Z 09003KT 4000 BR FEW010 18/17 Q1016=",
        "recebimento": "2023-09-22 08:01:44"
    },
    {
        "id_localidade": "SBGR",
        "validade_inicial": "2023-09-22 09:00:00",
        "mens": "METAR SBGR 220900Z 08005KT 3000 0500E R28L/0225D R10L/0250D R28R/0400D R10R/P2000 BR PRFG SCT001 17/17 Q1016=",
        "recebimento": "2023-09-22 09:01:46"
    },
    {
        "id_localidade": "SBGR",
        "validade_inicial": "2023-09-22 09:30:00",
        "mens": "SPECI SBGR 220930Z 08004KT 0800 R28L/0200D R10L/0225D R28R/0250D R10R/0325D FG SCT001 17/17 Q1016=",
        "recebimento": "2023-09-22 09:32:03"
    },
    {
        "id_localidade": "SBGR",
        "validade_inicial": "2023-09-22 10:00:00",
        "mens": "METAR SBGR 221000Z 07005KT 0900 R10L/0250U R28L/0400U R28R/0550U R10R/0800U FG SCT002 17/17 Q1016=",
        "recebimento": "2023-09-22 09:57:44"
    },
    {
        "id_localidade": "SBGR",
        "validade_inicial": "2023-09-22 11:00:00",
        "mens": "METAR SBGR 221100Z 06006KT 3000 BR NSC 19/19 Q1017=",
        "recebimento": "2023-09-22 10:56:24"
    },
    {
        "id_localidade": "SBGR",
        "validade_inicial": "2023-09-22 12:00:00",
        "mens": "METAR SBGR 221200Z 05005KT 5000 HZ NSC 25/18 Q1017=",
        "recebimento": "2023-09-22 12:00:58"
    },
    {
        "id_localidade": "SBGR",
        "validade_inicial": "2023-09-22 13:00:00",
        "mens": "METAR SBGR 221300Z 03003KT CAVOK 29/16 Q1016=",
        "recebimento": "2023-09-22 12:58:33"
    },
    {
        "id_localidade": "SBGR",
        "validade_inicial": "2023-09-22 14:00:00",
        "mens": "METAR SBGR 221400Z 32008G19KT CAVOK 31/12 Q1016=",
        "recebimento": "2023-09-22 13:58:07"
    },
    {
        "id_localidade": "SBGR",
        "validade_inicial": "2023-09-22 15:00:00",
        "mens": "METAR SBGR 221500Z 31007KT CAVOK 32/13 Q1016=",
        "recebimento": "2023-09-22 14:58:25"
    },
    {
        "id_localidade": "SBGR",
        "validade_inicial": "2023-09-22 16:00:00",
        "mens": "METAR SBGR 221600Z 28007KT 9999 FEW045 33/15 Q1015=",
        "recebimento": "2023-09-22 15:56:28"
    },
    {
        "id_localidade": "SBGR",
        "validade_inicial": "2023-09-22 17:00:00",
        "mens": "METAR SBGR 221700Z 28009KT CAVOK 33/14 Q1014=",
        "recebimento": "2023-09-22 17:11:18"
    },
    {
        "id_localidade": "SBGR",
        "validade_inicial": "2023-09-22 18:00:00",
        "mens": "METAR SBGR 221800Z 24006KT CAVOK 32/13 Q1013=",
        "recebimento": "2023-09-22 17:58:10"
    },
    {
        "id_localidade": "SBGR",
        "validade_inicial": "2023-09-22 19:00:00",
        "mens": "METAR SBGR 221900Z 25006KT CAVOK 33/15 Q1013=",
        "recebimento": "2023-09-22 18:57:50"
    },
    {
        "id_localidade": "SBGR",
        "validade_inicial": "2023-09-22 20:00:00",
        "mens": "METAR SBGR 222000Z 18004KT 9999 -RA FEW045TCU SCT070 29/16 Q1014=",
        "recebimento": "2023-09-22 19:57:30"
    },
    {
        "id_localidade": "SBGR",
        "validade_inicial": "2023-09-22 21:00:00",
        "mens": "METAR SBGR 222100Z 29005KT 9999 -TSRA FEW050CB BKN080 25/19 Q1016=",
        "recebimento": "2023-09-22 20:59:22"
    },
    {
        "id_localidade": "SBGR",
        "validade_inicial": "2023-09-22 22:00:00",
        "mens": "METAR SBGR 222200Z 33005KT 9999 -RA NSC 23/19 Q1016 RETS=",
        "recebimento": "2023-09-22 21:53:14"
    },
    {
        "id_localidade": "SBGR",
        "validade_inicial": "2023-09-22 23:00:00",
        "mens": "METAR SBGR 222300Z 17005KT CAVOK 24/16 Q1017=",
        "recebimento": "2023-09-22 22:56:36"
    },
    {
        "id_localidade": "SBGR",
        "validade_inicial": "2023-09-23 00:00:00",
        "mens": "METAR SBGR 230000Z 19006KT 8000 NSC 22/18 Q1018=",
        "recebimento": "2023-09-22 23:59:01"
    },
    {
        "id_localidade": "SBGR",
        "validade_inicial": "2023-09-23 01:00:00",
        "mens": "METAR SBGR 230100Z 18001KT CAVOK 21/18 Q1018=",
        "recebimento": "2023-09-23 00:57:24"
    },
    {
        "id_localidade": "SBGR",
        "validade_inicial": "2023-09-23 02:00:00",
        "mens": "METAR SBGR 230200Z 00000KT CAVOK 20/17 Q1018=",
        "recebimento": "2023-09-23 01:58:15"
    },
    {
        "id_localidade": "SBGR",
        "validade_inicial": "2023-09-23 03:00:00",
        "mens": "METAR SBGR 230300Z 00000KT CAVOK 19/17 Q1017=",
        "recebimento": "2023-09-23 02:58:39"
    },
    {
        "id_localidade": "SBGR",
        "validade_inicial": "2023-09-23 04:00:00",
        "mens": "METAR SBGR 230400Z 29003KT CAVOK 19/18 Q1017=",
        "recebimento": "2023-09-23 03:56:36"
    },
    {
        "id_localidade": "SBGR",
        "validade_inicial": "2023-09-23 05:00:00",
        "mens": "METAR SBGR 230500Z 18001KT CAVOK 19/17 Q1016=",
        "recebimento": "2023-09-23 04:57:29"
    },
    {
        "id_localidade": "SBGR",
        "validade_inicial": "2023-09-23 06:00:00",
        "mens": "METAR SBGR 230600Z 00000KT CAVOK 19/18 Q1016=",
        "recebimento": "2023-09-23 05:55:37"
    },
    {
        "id_localidade": "SBGR",
        "validade_inicial": "2023-09-23 07:00:00",
        "mens": "METAR SBGR 230700Z 00000KT CAVOK 19/17 Q1015=",
        "recebimento": "2023-09-23 06:55:30"
    },
    {
        "id_localidade": "SBGR",
        "validade_inicial": "2023-09-23 08:00:00",
        "mens": "METAR SBGR 230800Z 21003KT CAVOK 18/17 Q1016=",
        "recebimento": "2023-09-23 07:55:47"
    },
    {
        "id_localidade": "SBGR",
        "validade_inicial": "2023-09-23 09:00:00",
        "mens": "METAR SBGR 230900Z 04003KT 9000 NSC 19/17 Q1016=",
        "recebimento": "2023-09-23 08:56:59"
    },
    {
        "id_localidade": "SBGR",
        "validade_inicial": "2023-09-23 10:00:00",
        "mens": "METAR SBGR 231000Z 06003KT CAVOK 20/17 Q1017=",
        "recebimento": "2023-09-23 09:57:29"
    },
    {
        "id_localidade": "SBGR",
        "validade_inicial": "2023-09-23 10:25:00",
        "mens": "SPECI SBGR 231025Z 04003KT 7000 3000E NSC 21/18 Q1017=",
        "recebimento": "2023-09-23 10:29:21"
    },
    {
        "id_localidade": "SBGR",
        "validade_inicial": "2023-09-23 11:00:00",
        "mens": "METAR SBGR 231100Z 05004KT 7000 3000E NSC 22/18 Q1017=",
        "recebimento": "2023-09-23 10:57:03"
    },
    {
        "id_localidade": "SBGR",
        "validade_inicial": "2023-09-23 12:00:00",
        "mens": "METAR SBGR 231200Z 07005KT CAVOK 25/15 Q1017=",
        "recebimento": "2023-09-23 11:59:27"
    },
    {
        "id_localidade": "SBGR",
        "validade_inicial": "2023-09-23 13:00:00",
        "mens": "METAR SBGR 231300Z 07006KT CAVOK 27/14 Q1017=",
        "recebimento": "2023-09-23 13:02:11"
    },
    {
        "id_localidade": "SBGR",
        "validade_inicial": "2023-09-23 14:00:00",
        "mens": "METAR SBGR 231400Z 05004KT CAVOK 29/14 Q1016=",
        "recebimento": "2023-09-23 13:57:48"
    },
    {
        "id_localidade": "SBGR",
        "validade_inicial": "2023-09-23 15:00:00",
        "mens": "METAR SBGR 231500Z 22003KT CAVOK 31/15 Q1015=",
        "recebimento": "2023-09-23 14:57:08"
    },
    {
        "id_localidade": "SBGR",
        "validade_inicial": "2023-09-23 16:00:00",
        "mens": "METAR SBGR 231600Z 20003KT CAVOK 32/15 Q1015=",
        "recebimento": "2023-09-23 15:56:17"
    },
    {
        "id_localidade": "SBGR",
        "validade_inicial": "2023-09-23 17:00:00",
        "mens": "METAR SBGR 231700Z 29003KT CAVOK 33/14 Q1014=",
        "recebimento": "2023-09-23 16:55:13"
    },
    {
        "id_localidade": "SBGR",
        "validade_inicial": "2023-09-23 18:00:00",
        "mens": "METAR SBGR 231800Z 21005KT CAVOK 34/15 Q1013=",
        "recebimento": "2023-09-23 17:56:41"
    },
    {
        "id_localidade": "SBGR",
        "validade_inicial": "2023-09-23 19:00:00",
        "mens": "METAR SBGR 231900Z 17006KT CAVOK 33/18 Q1014=",
        "recebimento": "2023-09-23 18:56:46"
    },
    {
        "id_localidade": "SBGR",
        "validade_inicial": "2023-09-23 20:00:00",
        "mens": "METAR SBGR 232000Z 16007KT CAVOK 30/17 Q1014=",
        "recebimento": "2023-09-23 19:55:15"
    },
    {
        "id_localidade": "SBGR",
        "validade_inicial": "2023-09-23 21:00:00",
        "mens": "METAR SBGR 232100Z 22002KT CAVOK 28/15 Q1015=",
        "recebimento": "2023-09-23 21:00:42"
    },
    {
        "id_localidade": "SBGR",
        "validade_inicial": "2023-09-23 22:00:00",
        "mens": "METAR SBGR 232200Z 18002KT CAVOK 25/17 Q1015=",
        "recebimento": "2023-09-23 21:50:17"
    },
    {
        "id_localidade": "SBGR",
        "validade_inicial": "2023-09-23 23:00:00",
        "mens": "METAR SBGR 232300Z 09003KT CAVOK 24/17 Q1015=",
        "recebimento": "2023-09-23 22:55:04"
    },
    {
        "id_localidade": "SBGR",
        "validade_inicial": "2023-09-24 00:00:00",
        "mens": "METAR SBGR 240000Z 17002KT CAVOK 22/13 Q1016=",
        "recebimento": "2023-09-23 23:56:53"
    },
    {
        "id_localidade": "SBGR",
        "validade_inicial": "2023-09-24 01:00:00",
        "mens": "METAR SBGR 240100Z 11002KT CAVOK 20/12 Q1016=",
        "recebimento": "2023-09-24 00:59:36"
    },
    {
        "id_localidade": "SBGR",
        "validade_inicial": "2023-09-24 02:00:00",
        "mens": "METAR SBGR 240200Z 09003KT CAVOK 21/14 Q1016=",
        "recebimento": "2023-09-24 01:57:00"
    },
    {
        "id_localidade": "SBGR",
        "validade_inicial": "2023-09-24 03:00:00",
        "mens": "METAR SBGR 240300Z 00000KT CAVOK 19/14 Q1015=",
        "recebimento": "2023-09-24 02:57:01"
    },
    {
        "id_localidade": "SBGR",
        "validade_inicial": "2023-09-24 04:00:00",
        "mens": "METAR SBGR 240400Z 10002KT CAVOK 19/14 Q1015=",
        "recebimento": "2023-09-24 03:57:16"
    },
    {
        "id_localidade": "SBGR",
        "validade_inicial": "2023-09-24 05:00:00",
        "mens": "METAR SBGR 240500Z 00000KT 8000 NSC 19/15 Q1015=",
        "recebimento": "2023-09-24 04:58:29"
    },
    {
        "id_localidade": "SBGR",
        "validade_inicial": "2023-09-24 06:00:00",
        "mens": "METAR SBGR 240600Z 10002KT 8000 NSC 18/15 Q1014=",
        "recebimento": "2023-09-24 05:59:13"
    },
    {
        "id_localidade": "SBGR",
        "validade_inicial": "2023-09-24 07:00:00",
        "mens": "METAR SBGR 240700Z 08005KT 8000 NSC 18/16 Q1014=",
        "recebimento": "2023-09-24 06:59:13"
    },
    {
        "id_localidade": "SBGR",
        "validade_inicial": "2023-09-24 08:00:00",
        "mens": "METAR SBGR 240800Z 07006KT CAVOK 19/16 Q1014=",
        "recebimento": "2023-09-24 07:58:10"
    },
    {
        "id_localidade": "SBGR",
        "validade_inicial": "2023-09-24 09:00:00",
        "mens": "METAR SBGR 240900Z 11001KT 9000 4000E NSC 17/15 Q1015=",
        "recebimento": "2023-09-24 08:58:05"
    },
    {
        "id_localidade": "SBGR",
        "validade_inicial": "2023-09-24 10:00:00",
        "mens": "METAR SBGR 241000Z 08003KT 9000 NSC 20/16 Q1016=",
        "recebimento": "2023-09-24 09:55:23"
    },
    {
        "id_localidade": "SBGR",
        "validade_inicial": "2023-09-24 11:00:00",
        "mens": "METAR SBGR 241100Z 08004KT 9000 NSC 23/17 Q1016=",
        "recebimento": "2023-09-24 10:55:39"
    },
    {
        "id_localidade": "SBGR",
        "validade_inicial": "2023-09-24 12:00:00",
        "mens": "METAR SBGR 241200Z 00000KT CAVOK 27/17 Q1015=",
        "recebimento": "2023-09-24 11:56:44"
    },
    {
        "id_localidade": "SBGR",
        "validade_inicial": "2023-09-24 13:00:00",
        "mens": "METAR SBGR 241300Z 00000KT CAVOK 31/16 Q1015=",
        "recebimento": "2023-09-24 12:55:58"
    },
    {
        "id_localidade": "SBGR",
        "validade_inicial": "2023-09-24 14:00:00",
        "mens": "METAR SBGR 241400Z 31006KT CAVOK 34/15 Q1015=",
        "recebimento": "2023-09-24 14:00:51"
    },
    {
        "id_localidade": "SBGR",
        "validade_inicial": "2023-09-24 15:00:00",
        "mens": "METAR SBGR 241500Z 31009KT CAVOK 35/14 Q1014=",
        "recebimento": "2023-09-24 14:56:20"
    },
    {
        "id_localidade": "SBGR",
        "validade_inicial": "2023-09-24 16:00:00",
        "mens": "METAR SBGR 241600Z 24010KT CAVOK 35/14 Q1013=",
        "recebimento": "2023-09-24 16:02:07"
    },
    {
        "id_localidade": "SBGR",
        "validade_inicial": "2023-09-24 17:00:00",
        "mens": "METAR SBGR 241700Z 26010KT CAVOK 36/11 Q1012=",
        "recebimento": "2023-09-24 16:55:35"
    },
    {
        "id_localidade": "SBGR",
        "validade_inicial": "2023-09-24 18:00:00",
        "mens": "METAR SBGR 241800Z 28009KT CAVOK 36/11 Q1011=",
        "recebimento": "2023-09-24 18:00:40"
    },
    {
        "id_localidade": "SBGR",
        "validade_inicial": "2023-09-24 19:00:00",
        "mens": "METAR SBGR 241900Z 29009KT 9999 FEW040 35/12 Q1012=",
        "recebimento": "2023-09-24 18:58:38"
    },
    {
        "id_localidade": "SBGR",
        "validade_inicial": "2023-09-24 20:00:00",
        "mens": "METAR SBGR 242000Z 29009KT CAVOK 34/13 Q1012=",
        "recebimento": "2023-09-24 19:59:25"
    },
    {
        "id_localidade": "SBGR",
        "validade_inicial": "2023-09-24 21:00:00",
        "mens": "METAR SBGR 242100Z 16004KT CAVOK 32/15 Q1013=",
        "recebimento": "2023-09-24 20:55:15"
    },
    {
        "id_localidade": "SBGR",
        "validade_inicial": "2023-09-24 22:00:00",
        "mens": "METAR SBGR 242200Z 07004KT CAVOK 30/16 Q1013=",
        "recebimento": "2023-09-24 21:56:20"
    },
    {
        "id_localidade": "SBGR",
        "validade_inicial": "2023-09-24 23:00:00",
        "mens": "METAR SBGR 242300Z 00000KT CAVOK 27/17 Q1014=",
        "recebimento": "2023-09-24 22:56:50"
    },
    {
        "id_localidade": "SBGR",
        "validade_inicial": "2023-09-25 00:00:00",
        "mens": "METAR SBGR 250000Z 08003KT CAVOK 28/17 Q1014=",
        "recebimento": "2023-09-25 00:01:01"
    },
    {
        "id_localidade": "SBGR",
        "validade_inicial": "2023-09-25 01:00:00",
        "mens": "METAR SBGR 250100Z 16008KT 8000 NSC 25/20 Q1015=",
        "recebimento": "2023-09-25 01:00:50"
    },
    {
        "id_localidade": "SBGR",
        "validade_inicial": "2023-09-25 02:00:00",
        "mens": "METAR SBGR 250200Z 16006KT 120V210 CAVOK 22/19 Q1016=",
        "recebimento": "2023-09-25 01:55:07"
    },
    {
        "id_localidade": "SBGR",
        "validade_inicial": "2023-09-25 03:00:00",
        "mens": "METAR SBGR 250300Z 17004KT 130V250 8000 SCT013 BKN021 22/19 Q1016=",
        "recebimento": "2023-09-25 02:57:19"
    },
    {
        "id_localidade": "SBGR",
        "validade_inicial": "2023-09-25 04:00:00",
        "mens": "METAR SBGR 250400Z 10001KT 9000 NSC 21/19 Q1016=",
        "recebimento": "2023-09-25 03:56:38"
    },
    {
        "id_localidade": "SBGR",
        "validade_inicial": "2023-09-25 05:00:00",
        "mens": "METAR SBGR 250500Z 18001KT CAVOK 21/19 Q1015=",
        "recebimento": "2023-09-25 04:56:03"
    },
    {
        "id_localidade": "SBGR",
        "validade_inicial": "2023-09-25 06:00:00",
        "mens": "METAR COR SBGR 250600Z 17004KT 140V210 9999 BKN013 21/19 Q1015=",
        "recebimento": "2023-09-25 05:59:33"
    },
    {
        "id_localidade": "SBGR",
        "validade_inicial": "2023-09-25 07:00:00",
        "mens": "METAR SBGR 250700Z 16006KT 130V190 8000 BKN009 21/20 Q1015=",
        "recebimento": "2023-09-25 06:56:24"
    },
    {
        "id_localidade": "SBGR",
        "validade_inicial": "2023-09-25 08:00:00",
        "mens": "METAR SBGR 250800Z 13004KT 080V200 9999 OVC009 21/19 Q1016=",
        "recebimento": "2023-09-25 07:57:08"
    },
    {
        "id_localidade": "SBGR",
        "validade_inicial": "2023-09-25 09:00:00",
        "mens": "METAR SBGR 250900Z 12004KT 080V160 9999 OVC009 21/19 Q1016=",
        "recebimento": "2023-09-25 08:58:59"
    },
    {
        "id_localidade": "SBGR",
        "validade_inicial": "2023-09-25 10:00:00",
        "mens": "METAR SBGR 251000Z 13003KT 9999 OVC009 20/19 Q1017=",
        "recebimento": "2023-09-25 10:00:25"
    },
    {
        "id_localidade": "SBGR",
        "validade_inicial": "2023-09-25 11:00:00",
        "mens": "METAR SBGR 251100Z 08005KT 9999 BKN013 22/19 Q1017=",
        "recebimento": "2023-09-25 10:59:51"
    },
    {
        "id_localidade": "SBGR",
        "validade_inicial": "2023-09-25 12:00:00",
        "mens": "METAR SBGR 251200Z 08005KT 9999 BKN015 23/19 Q1017=",
        "recebimento": "2023-09-25 11:57:45"
    },
    {
        "id_localidade": "SBGR",
        "validade_inicial": "2023-09-25 13:00:00",
        "mens": "METAR SBGR 251300Z 08005KT CAVOK 25/20 Q1016=",
        "recebimento": "2023-09-25 13:01:37"
    },
    {
        "id_localidade": "SBGR",
        "validade_inicial": "2023-09-25 14:00:00",
        "mens": "METAR SBGR 251400Z 06007KT CAVOK 27/19 Q1015=",
        "recebimento": "2023-09-25 13:59:36"
    },
    {
        "id_localidade": "SBGR",
        "validade_inicial": "2023-09-25 15:00:00",
        "mens": "METAR SBGR 251500Z 06005KT CAVOK 30/19 Q1014=",
        "recebimento": "2023-09-25 15:00:08"
    },
    {
        "id_localidade": "SBGR",
        "validade_inicial": "2023-09-25 16:00:00",
        "mens": "METAR SBGR 251600Z 17004KT CAVOK 32/20 Q1013=",
        "recebimento": "2023-09-25 15:58:21"
    },
    {
        "id_localidade": "SBGR",
        "validade_inicial": "2023-09-25 17:00:00",
        "mens": "METAR SBGR 251700Z 19004KT CAVOK 33/19 Q1012=",
        "recebimento": "2023-09-25 16:55:29"
    },
    {
        "id_localidade": "SBGR",
        "validade_inicial": "2023-09-25 18:00:00",
        "mens": "METAR SBGR 251800Z 18009KT 8000 NSC 29/20 Q1012=",
        "recebimento": "2023-09-25 17:56:59"
    },
    {
        "id_localidade": "SBGR",
        "validade_inicial": "2023-09-25 19:00:00",
        "mens": "METAR SBGR 251900Z 19007KT 8000 NSC 25/19 Q1013=",
        "recebimento": "2023-09-25 18:55:44"
    },
    {
        "id_localidade": "SBGR",
        "validade_inicial": "2023-09-25 20:00:00",
        "mens": "METAR SBGR 252000Z 18007KT 8000 BKN015 23/19 Q1014=",
        "recebimento": "2023-09-25 19:57:34"
    },
    {
        "id_localidade": "SBGR",
        "validade_inicial": "2023-09-25 20:20:00",
        "mens": "SPECI SBGR 252020Z 17006KT 7000 OVC013 22/19 Q1014=",
        "recebimento": "2023-09-25 20:20:36"
    },
    {
        "id_localidade": "SBGR",
        "validade_inicial": "2023-09-25 21:00:00",
        "mens": "METAR SBGR 252100Z 13005KT 7000 OVC013 22/19 Q1014=",
        "recebimento": "2023-09-25 20:56:22"
    },
    {
        "id_localidade": "SBGR",
        "validade_inicial": "2023-09-25 22:00:00",
        "mens": "METAR SBGR 252200Z 17007KT 9999 OVC013 21/18 Q1016=",
        "recebimento": "2023-09-25 21:56:13"
    },
    {
        "id_localidade": "SBGR",
        "validade_inicial": "2023-09-25 23:00:00",
        "mens": "METAR SBGR 252300Z 17007KT 9999 OVC012 21/19 Q1017=",
        "recebimento": "2023-09-25 23:00:38"
    },
    {
        "id_localidade": "SBGR",
        "validade_inicial": "2023-09-26 00:00:00",
        "mens": "METAR SBGR 260000Z 14005KT 9999 OVC014 21/18 Q1016=",
        "recebimento": "2023-09-25 23:57:51"
    },
    {
        "id_localidade": "SBGR",
        "validade_inicial": "2023-09-26 01:00:00",
        "mens": "METAR SBGR 260100Z 11007KT 9999 OVC013 21/18 Q1016=",
        "recebimento": "2023-09-26 00:54:22"
    },
    {
        "id_localidade": "SBGR",
        "validade_inicial": "2023-09-26 02:00:00",
        "mens": "METAR SBGR 260200Z 12006KT 9999 OVC013 21/18 Q1017=",
        "recebimento": "2023-09-26 01:54:49"
    },
    {
        "id_localidade": "SBGR",
        "validade_inicial": "2023-09-26 03:00:00",
        "mens": "METAR SBGR 260300Z 15005KT 9999 OVC013 21/18 Q1017=",
        "recebimento": "2023-09-26 02:57:49"
    },
    {
        "id_localidade": "SBGR",
        "validade_inicial": "2023-09-26 04:00:00",
        "mens": "METAR SBGR 260400Z 09008KT 9999 OVC009 21/19 Q1015=",
        "recebimento": "2023-09-26 03:56:18"
    },
    {
        "id_localidade": "SBGR",
        "validade_inicial": "2023-09-26 05:00:00",
        "mens": "METAR SBGR 260500Z 06010KT 9999 BKN011 21/18 Q1014=",
        "recebimento": "2023-09-26 04:57:20"
    },
    {
        "id_localidade": "SBGR",
        "validade_inicial": "2023-09-26 06:00:00",
        "mens": "METAR SBGR 260600Z 07009KT 9999 BKN011 20/19 Q1014=",
        "recebimento": "2023-09-26 05:57:34"
    },
    {
        "id_localidade": "SBGR",
        "validade_inicial": "2023-09-26 07:00:00",
        "mens": "METAR SBGR 260700Z 06012KT 9999 BKN009 20/19 Q1013=",
        "recebimento": "2023-09-26 06:56:29"
    },
    {
        "id_localidade": "SBGR",
        "validade_inicial": "2023-09-26 08:00:00",
        "mens": "METAR SBGR 260800Z 08007KT 9999 BKN011 20/19 Q1013=",
        "recebimento": "2023-09-26 07:57:13"
    },
    {
        "id_localidade": "SBGR",
        "validade_inicial": "2023-09-26 08:15:00",
        "mens": "SPECI SBGR 260815Z 07011KT 9999 FEW009 20/19 Q1013=",
        "recebimento": "2023-09-26 08:16:11"
    },
    {
        "id_localidade": "SBGR",
        "validade_inicial": "2023-09-26 09:00:00",
        "mens": "METAR SBGR 260900Z 07008KT 9999 FEW009 20/19 Q1013=",
        "recebimento": "2023-09-26 08:56:05"
    },
    {
        "id_localidade": "SBGR",
        "validade_inicial": "2023-09-26 10:00:00",
        "mens": "METAR SBGR 261000Z 07012KT 9999 BKN009 21/19 Q1014=",
        "recebimento": "2023-09-26 09:56:24"
    },
    {
        "id_localidade": "SBGR",
        "validade_inicial": "2023-09-26 11:00:00",
        "mens": "METAR SBGR 261100Z 07014KT 9999 BKN009 22/19 Q1014=",
        "recebimento": "2023-09-26 10:55:14"
    },
    {
        "id_localidade": "SBGR",
        "validade_inicial": "2023-09-26 12:00:00",
        "mens": "METAR SBGR 261200Z 06012KT 9999 FEW009 23/20 Q1014=",
        "recebimento": "2023-09-26 11:59:15"
    },
    {
        "id_localidade": "SBGR",
        "validade_inicial": "2023-09-26 13:00:00",
        "mens": "METAR SBGR 261300Z 06011KT CAVOK 25/20 Q1014=",
        "recebimento": "2023-09-26 12:59:37"
    },
    {
        "id_localidade": "SBGR",
        "validade_inicial": "2023-09-26 14:00:00",
        "mens": "METAR SBGR 261400Z 09005KT CAVOK 27/20 Q1013=",
        "recebimento": "2023-09-26 14:00:24"
    },
    {
        "id_localidade": "SBGR",
        "validade_inicial": "2023-09-26 15:00:00",
        "mens": "METAR SBGR 261500Z 06004KT CAVOK 30/20 Q1011=",
        "recebimento": "2023-09-26 14:58:35"
    },
    {
        "id_localidade": "SBGR",
        "validade_inicial": "2023-09-26 16:00:00",
        "mens": "METAR SBGR 261600Z 19003KT CAVOK 33/20 Q1010=",
        "recebimento": "2023-09-26 15:59:00"
    },
    {
        "id_localidade": "SBGR",
        "validade_inicial": "2023-09-26 17:00:00",
        "mens": "METAR SBGR 261700Z 20003KT CAVOK 34/19 Q1009=",
        "recebimento": "2023-09-26 16:57:14"
    },
    {
        "id_localidade": "SBGR",
        "validade_inicial": "2023-09-26 18:00:00",
        "mens": "METAR SBGR 261800Z 29012KT CAVOK 36/15 Q1008=",
        "recebimento": "2023-09-26 18:02:08"
    },
    {
        "id_localidade": "SBGR",
        "validade_inicial": "2023-09-26 19:00:00",
        "mens": "METAR SBGR 261900Z 28010KT CAVOK 36/16 Q1008=",
        "recebimento": "2023-09-26 18:57:02"
    },
    {
        "id_localidade": "SBGR",
        "validade_inicial": "2023-09-26 20:00:00",
        "mens": "METAR SBGR 262000Z 28009KT CAVOK 34/16 Q1008=",
        "recebimento": "2023-09-26 19:58:04"
    },
    {
        "id_localidade": "SBGR",
        "validade_inicial": "2023-09-26 21:00:00",
        "mens": "METAR SBGR 262100Z 25005KT CAVOK 32/17 Q1008=",
        "recebimento": "2023-09-26 20:58:59"
    },
    {
        "id_localidade": "SBGR",
        "validade_inicial": "2023-09-26 22:00:00",
        "mens": "METAR SBGR 262200Z 33002KT CAVOK 31/18 Q1009=",
        "recebimento": "2023-09-26 22:00:15"
    },
    {
        "id_localidade": "SBGR",
        "validade_inicial": "2023-09-26 23:00:00",
        "mens": "METAR SBGR 262300Z 07004KT CAVOK 29/22 Q1010=",
        "recebimento": "2023-09-26 22:58:12"
    },
    {
        "id_localidade": "SBGR",
        "validade_inicial": "2023-09-27 00:00:00",
        "mens": "METAR SBGR 270000Z 06002KT CAVOK 26/22 Q1011=",
        "recebimento": "2023-09-26 23:59:12"
    },
    {
        "id_localidade": "SBGR",
        "validade_inicial": "2023-09-27 01:00:00",
        "mens": "METAR SBGR 270100Z 08001KT CAVOK 27/21 Q1011=",
        "recebimento": "2023-09-27 00:56:28"
    },
    {
        "id_localidade": "SBGR",
        "validade_inicial": "2023-09-27 02:00:00",
        "mens": "METAR SBGR 270200Z 08007KT CAVOK 26/20 Q1010=",
        "recebimento": "2023-09-27 01:56:15"
    },
    {
        "id_localidade": "SBGR",
        "validade_inicial": "2023-09-27 03:00:00",
        "mens": "METAR SBGR 270300Z 08006KT CAVOK 25/21 Q1010=",
        "recebimento": "2023-09-27 02:55:44"
    },
    {
        "id_localidade": "SBGR",
        "validade_inicial": "2023-09-27 04:00:00",
        "mens": "METAR SBGR 270400Z 07006KT CAVOK 24/20 Q1010=",
        "recebimento": "2023-09-27 03:55:46"
    },
    {
        "id_localidade": "SBGR",
        "validade_inicial": "2023-09-27 05:00:00",
        "mens": "METAR SBGR 270500Z 07006KT CAVOK 24/20 Q1009=",
        "recebimento": "2023-09-27 04:57:28"
    },
    {
        "id_localidade": "SBGR",
        "validade_inicial": "2023-09-27 06:00:00",
        "mens": "METAR SBGR 270600Z 08003KT CAVOK 25/19 Q1009=",
        "recebimento": "2023-09-27 05:56:53"
    },
    {
        "id_localidade": "SBGR",
        "validade_inicial": "2023-09-27 07:00:00",
        "mens": "METAR SBGR 270700Z 06006KT CAVOK 24/19 Q1008=",
        "recebimento": "2023-09-27 06:55:10"
    },
    {
        "id_localidade": "SBGR",
        "validade_inicial": "2023-09-27 08:00:00",
        "mens": "METAR SBGR 270800Z 04005KT CAVOK 27/19 Q1008=",
        "recebimento": "2023-09-27 08:00:26"
    },
    {
        "id_localidade": "SBGR",
        "validade_inicial": "2023-09-27 09:00:00",
        "mens": "METAR SBGR 270900Z 10004KT CAVOK 25/19 Q1009=",
        "recebimento": "2023-09-27 08:57:42"
    },
    {
        "id_localidade": "SBGR",
        "validade_inicial": "2023-09-27 10:00:00",
        "mens": "METAR SBGR 271000Z 32008G20KT 7000 NSC 28/18 Q1010=",
        "recebimento": "2023-09-27 09:58:06"
    },
    {
        "id_localidade": "SBGR",
        "validade_inicial": "2023-09-27 11:00:00",
        "mens": "METAR SBGR 271100Z 32011KT CAVOK 27/19 Q1011=",
        "recebimento": "2023-09-27 10:56:28"
    },
    {
        "id_localidade": "SBGR",
        "validade_inicial": "2023-09-27 12:00:00",
        "mens": "METAR SBGR 271200Z 31013KT CAVOK 29/18 Q1011=",
        "recebimento": "2023-09-27 11:57:45"
    },
    {
        "id_localidade": "SBGR",
        "validade_inicial": "2023-09-27 13:00:00",
        "mens": "METAR SBGR 271300Z 33013KT CAVOK 28/19 Q1011=",
        "recebimento": "2023-09-27 12:56:46"
    },
    {
        "id_localidade": "SBGR",
        "validade_inicial": "2023-09-27 14:00:00",
        "mens": "METAR SBGR 271400Z 33012KT CAVOK 30/19 Q1011=",
        "recebimento": "2023-09-27 14:03:06"
    },
    {
        "id_localidade": "SBGR",
        "validade_inicial": "2023-09-27 15:00:00",
        "mens": "METAR SBGR 271500Z 30014KT CAVOK 32/19 Q1010=",
        "recebimento": "2023-09-27 14:57:48"
    },
    {
        "id_localidade": "SBGR",
        "validade_inicial": "2023-09-27 16:00:00",
        "mens": "METAR SBGR 271600Z 29011KT CAVOK 33/19 Q1010=",
        "recebimento": "2023-09-27 16:02:14"
    },
    {
        "id_localidade": "SBGR",
        "validade_inicial": "2023-09-27 17:00:00",
        "mens": "METAR SBGR 271700Z 32008KT CAVOK 33/19 Q1008=",
        "recebimento": "2023-09-27 16:59:55"
    },
    {
        "id_localidade": "SBGR",
        "validade_inicial": "2023-09-27 18:00:00",
        "mens": "METAR SBGR 271800Z 13008KT 9999 SCT020 FEW040TCU BKN050 26/21 Q1008=",
        "recebimento": "2023-09-27 18:00:36"
    },
    {
        "id_localidade": "SBGR",
        "validade_inicial": "2023-09-27 18:26:00",
        "mens": "SPECI SBGR 271826Z 16007KT 6000 TSRA SCT015 FEW045CB BKN050 26/20 Q1009=",
        "recebimento": "2023-09-27 18:33:02"
    },
    {
        "id_localidade": "SBGR",
        "validade_inicial": "2023-09-27 18:39:00",
        "mens": "SPECI SBGR 271839Z 23012G25KT 0900 R10L/0600D R28R/1700U R28L/1800U R10R/P2000 +TSGRRA BKN020 BKN030CB 22/20 Q1012 RERA=",
        "recebimento": "2023-09-27 18:47:55"
    },
    {
        "id_localidade": "SBGR",
        "validade_inicial": "2023-09-27 19:00:00",
        "mens": "METAR COR SBGR 271900Z 18006KT 9000 -TSRA FEW009 SCT020 FEW030CB BKN050 21/20 Q1010 REGRRA=",
        "recebimento": "2023-09-27 19:09:43"
    },
    {
        "id_localidade": "SBGR",
        "validade_inicial": "2023-09-27 19:20:00",
        "mens": "SPECI SBGR 271920Z 12005KT 6000 RA SCT020 BKN050 21/21 Q1009 RETS=",
        "recebimento": "2023-09-27 19:25:02"
    },
    {
        "id_localidade": "SBGR",
        "validade_inicial": "2023-09-27 20:00:00",
        "mens": "METAR SBGR 272000Z 20002KT 9999 4000E RA SCT020 SCT050 BKN100 22/21 Q1009 RETS=",
        "recebimento": "2023-09-27 20:02:23"
    },
    {
        "id_localidade": "SBGR",
        "validade_inicial": "2023-09-27 20:30:00",
        "mens": "SPECI SBGR 272030Z 12005KT 9999 FEW010 SCT050 BKN080 23/21 Q1009 RERA=",
        "recebimento": "2023-09-27 20:35:42"
    },
    {
        "id_localidade": "SBGR",
        "validade_inicial": "2023-09-27 21:00:00",
        "mens": "METAR SBGR 272100Z 13004KT 9999 SCT010 BKN050 BKN090 23/21 Q1010 RERA=",
        "recebimento": "2023-09-27 21:01:38"
    },
    {
        "id_localidade": "SBGR",
        "validade_inicial": "2023-09-27 21:15:00",
        "mens": "SPECI SBGR 272115Z 14003KT 9999 TS BKN019 FEW030CB 23/21 Q1011=",
        "recebimento": "2023-09-27 21:20:28"
    },
    {
        "id_localidade": "SBGR",
        "validade_inicial": "2023-09-27 21:27:00",
        "mens": "SPECI SBGR 272127Z 28003KT 3500 TSRA BR BKN015 FEW030CB 23/20 Q1012=",
        "recebimento": "2023-09-27 21:33:49"
    },
    {
        "id_localidade": "SBGR",
        "validade_inicial": "2023-09-27 22:00:00",
        "mens": "METAR SBGR 272200Z 15004KT 9999 -TSRA SCT013 BKN020 FEW030CB 22/20 Q1012 RERA=",
        "recebimento": "2023-09-27 21:58:22"
    },
    {
        "id_localidade": "SBGR",
        "validade_inicial": "2023-09-27 22:24:00",
        "mens": "SPECI SBGR 272224Z 16007KT 3500 +TSRA BR FEW013 BKN023 FEW030CB 21/19 Q1013=",
        "recebimento": "2023-09-27 22:28:42"
    },
    {
        "id_localidade": "SBGR",
        "validade_inicial": "2023-09-27 23:00:00",
        "mens": "METAR SBGR 272300Z 09010KT 3000 +TSRA BR SCT010 BKN017 FEW030CB 21/20 Q1013=",
        "recebimento": "2023-09-27 23:00:41"
    },
    {
        "id_localidade": "SBGR",
        "validade_inicial": "2023-09-27 23:25:00",
        "mens": "SPECI SBGR 272325Z 14004KT 7000 -TSRA SCT009 FEW030CB BKN040 20/20 Q1014 RERA=",
        "recebimento": "2023-09-27 23:30:44"
    },
    {
        "id_localidade": "SBGR",
        "validade_inicial": "2023-09-28 00:00:00",
        "mens": "METAR SBGR 280000Z 10005KT 7000 -TSRA BKN009 FEW030CB 20/20 Q1014 RERA=",
        "recebimento": "2023-09-28 00:02:55"
    },
    {
        "id_localidade": "SBGR",
        "validade_inicial": "2023-09-28 01:00:00",
        "mens": "METAR SBGR 280100Z 14003KT 9999 BKN009 BKN080 20/19 Q1015 RETS=",
        "recebimento": "2023-09-28 00:56:43"
    },
    {
        "id_localidade": "SBGR",
        "validade_inicial": "2023-09-28 01:20:00",
        "mens": "SPECI SBGR 280120Z 16007KT 3000 +TSRA BKN009 FEW050CB BKN080 19/19 Q1015=",
        "recebimento": "2023-09-28 01:23:56"
    },
    {
        "id_localidade": "SBGR",
        "validade_inicial": "2023-09-28 01:40:00",
        "mens": "SPECI SBGR 280140Z 17004KT 5000 -TSRA BKN009 FEW050CB BKN080 19/19 Q1016 RERA=",
        "recebimento": "2023-09-28 01:44:10"
    },
    {
        "id_localidade": "SBGR",
        "validade_inicial": "2023-09-28 02:00:00",
        "mens": "METAR COR SBGR 280200Z 17005KT 9999 -TSRA BKN009 FEW050CB BKN080 19/18 Q1016 RERA=",
        "recebimento": "2023-09-28 03:15:03"
    },
    {
        "id_localidade": "SBGR",
        "validade_inicial": "2023-09-28 03:00:00",
        "mens": "METAR SBGR 280300Z 18006KT 9999 BKN009 BKN080 18/16 Q1016 RETS=",
        "recebimento": "2023-09-28 03:03:48"
    },
    {
        "id_localidade": "SBGR",
        "validade_inicial": "2023-09-28 04:00:00",
        "mens": "METAR SBGR 280400Z 17006KT 9999 OVC011 17/16 Q1016=",
        "recebimento": "2023-09-28 03:58:16"
    },
    {
        "id_localidade": "SBGR",
        "validade_inicial": "2023-09-28 05:00:00",
        "mens": "METAR SBGR 280500Z 17007KT 9999 OVC011 17/15 Q1016=",
        "recebimento": "2023-09-28 04:57:23"
    },
    {
        "id_localidade": "SBGR",
        "validade_inicial": "2023-09-28 06:00:00",
        "mens": "METAR SBGR 280600Z 17007KT 9999 OVC011 16/14 Q1016=",
        "recebimento": "2023-09-28 05:59:31"
    },
    {
        "id_localidade": "SBGR",
        "validade_inicial": "2023-09-28 07:00:00",
        "mens": "METAR SBGR 280700Z 18007KT 9999 -RA OVC009 15/14 Q1016=",
        "recebimento": "2023-09-28 06:57:35"
    },
    {
        "id_localidade": "SBGR",
        "validade_inicial": "2023-09-28 08:00:00",
        "mens": "METAR SBGR 280800Z 18006KT 9999 BKN009 BKN017 14/13 Q1018=",
        "recebimento": "2023-09-28 07:59:36"
    },
    {
        "id_localidade": "SBGR",
        "validade_inicial": "2023-09-28 09:00:00",
        "mens": "METAR SBGR 280900Z 19005KT 9999 BKN013 OVC020 14/13 Q1018=",
        "recebimento": "2023-09-28 08:56:58"
    },
    {
        "id_localidade": "SBGR",
        "validade_inicial": "2023-09-28 10:00:00",
        "mens": "METAR SBGR 281000Z 16003KT 9999 SCT015 OVC017 15/12 Q1019=",
        "recebimento": "2023-09-28 09:56:43"
    },
    {
        "id_localidade": "SBGR",
        "validade_inicial": "2023-09-28 11:00:00",
        "mens": "METAR SBGR 281100Z 17005KT 130V220 9000 OVC011 15/14 Q1019=",
        "recebimento": "2023-09-28 10:57:41"
    },
    {
        "id_localidade": "SBGR",
        "validade_inicial": "2023-09-28 12:00:00",
        "mens": "METAR SBGR 281200Z 15005KT 110V190 9000 -DZ BKN011 OVC015 16/14 Q1020=",
        "recebimento": "2023-09-28 12:01:44"
    },
    {
        "id_localidade": "SBGR",
        "validade_inicial": "2023-09-28 13:00:00",
        "mens": "METAR SBGR 281300Z 14005KT 100V200 9999 BKN010 OVC017 16/14 Q1021=",
        "recebimento": "2023-09-28 12:57:17"
    },
    {
        "id_localidade": "SBGR",
        "validade_inicial": "2023-09-28 13:30:00",
        "mens": "SPECI SBGR 281330Z 16009KT 3000 -DZ BR OVC011 15/14 Q1021=",
        "recebimento": "2023-09-28 13:33:51"
    },
    {
        "id_localidade": "SBGR",
        "validade_inicial": "2023-09-28 14:00:00",
        "mens": "METAR SBGR 281400Z 16008KT 120V180 9000 SCT007 BKN012 OVC021 16/13 Q1021=",
        "recebimento": "2023-09-28 13:59:50"
    },
    {
        "id_localidade": "SBGR",
        "validade_inicial": "2023-09-28 15:00:00",
        "mens": "METAR SBGR 281500Z 16010KT 110V190 9999 SCT010 BKN014 OVC017 15/13 Q1021=",
        "recebimento": "2023-09-28 14:58:46"
    },
    {
        "id_localidade": "SBGR",
        "validade_inicial": "2023-09-28 16:00:00",
        "mens": "METAR SBGR 281600Z 13009KT 100V170 9999 VCSH BKN021 OVC040 17/12 Q1021=",
        "recebimento": "2023-09-28 15:59:06"
    },
    {
        "id_localidade": "SBGR",
        "validade_inicial": "2023-09-28 17:00:00",
        "mens": "METAR SBGR 281700Z 12008KT 9999 OVC023 17/12 Q1020=",
        "recebimento": "2023-09-28 16:58:16"
    },
    {
        "id_localidade": "SBGR",
        "validade_inicial": "2023-09-28 18:00:00",
        "mens": "METAR SBGR 281800Z 15007KT 9999 BKN019 OVC023 16/12 Q1020=",
        "recebimento": "2023-09-28 17:55:33"
    },
    {
        "id_localidade": "SBGR",
        "validade_inicial": "2023-09-28 19:00:00",
        "mens": "METAR SBGR 281900Z 15006KT 9999 BKN015 OVC019 16/13 Q1020=",
        "recebimento": "2023-09-28 18:53:35"
    },
    {
        "id_localidade": "SBGR",
        "validade_inicial": "2023-09-28 20:00:00",
        "mens": "METAR SBGR 282000Z 14007KT 9999 SCT017 BKN019 OVC033 16/13 Q1020=",
        "recebimento": "2023-09-28 19:57:02"
    },
    {
        "id_localidade": "SBGR",
        "validade_inicial": "2023-09-28 21:00:00",
        "mens": "METAR SBGR 282100Z 12007KT 9000 BKN017 OVC030 16/12 Q1020=",
        "recebimento": "2023-09-28 20:51:50"
    },
    {
        "id_localidade": "SBGR",
        "validade_inicial": "2023-09-28 22:00:00",
        "mens": "METAR SBGR 282200Z 12007KT 9999 BKN013 OVC015 15/13 Q1021=",
        "recebimento": "2023-09-28 21:51:57"
    },
    {
        "id_localidade": "SBGR",
        "validade_inicial": "2023-09-28 23:00:00",
        "mens": "METAR SBGR 282300Z 12008KT 9999 SCT007 BKN010 OVC013 15/13 Q1021=",
        "recebimento": "2023-09-28 22:54:51"
    },
    {
        "id_localidade": "SBGR",
        "validade_inicial": "2023-09-29 00:00:00",
        "mens": "METAR SBGR 290000Z 11007KT 9999 BKN011 OVC013 15/14 Q1022=",
        "recebimento": "2023-09-29 00:00:30"
    },
    {
        "id_localidade": "SBGR",
        "validade_inicial": "2023-09-29 01:00:00",
        "mens": "METAR SBGR 290100Z 10007KT 9999 BKN009 OVC013 15/14 Q1022=",
        "recebimento": "2023-09-29 00:59:54"
    },
    {
        "id_localidade": "SBGR",
        "validade_inicial": "2023-09-29 02:00:00",
        "mens": "METAR SBGR 290200Z 12007KT 9999 BKN013 OVC017 15/13 Q1022=",
        "recebimento": "2023-09-29 02:00:58"
    },
    {
        "id_localidade": "SBGR",
        "validade_inicial": "2023-09-29 03:00:00",
        "mens": "METAR SBGR 290300Z 13007KT 9999 BKN013 BKN020 15/13 Q1021=",
        "recebimento": "2023-09-29 03:00:19"
    },
    {
        "id_localidade": "SBGR",
        "validade_inicial": "2023-09-29 04:00:00",
        "mens": "METAR SBGR 290400Z 12007KT 9999 BKN011 OVC020 15/13 Q1021=",
        "recebimento": "2023-09-29 04:00:19"
    },
    {
        "id_localidade": "SBGR",
        "validade_inicial": "2023-09-29 05:00:00",
        "mens": "METAR SBGR 290500Z 11008KT 9999 SCT011 OVC025 15/13 Q1021=",
        "recebimento": "2023-09-29 04:59:46"
    },
    {
        "id_localidade": "SBGR",
        "validade_inicial": "2023-09-29 06:00:00",
        "mens": "METAR SBGR 290600Z 11006KT 9999 SCT011 BKN025 15/13 Q1021=",
        "recebimento": "2023-09-29 06:00:32"
    },
    {
        "id_localidade": "SBGR",
        "validade_inicial": "2023-09-29 07:00:00",
        "mens": "METAR SBGR 290700Z 08008KT 9999 FEW010 SCT013 BKN050 15/13 Q1020=",
        "recebimento": "2023-09-29 06:59:17"
    },
    {
        "id_localidade": "SBGR",
        "validade_inicial": "2023-09-29 08:00:00",
        "mens": "METAR SBGR 290800Z 07006KT 9999 BKN011 BKN025 15/13 Q1020=",
        "recebimento": "2023-09-29 07:59:49"
    },
    {
        "id_localidade": "SBGR",
        "validade_inicial": "2023-09-29 09:00:00",
        "mens": "METAR SBGR 290900Z 09005KT 9999 BKN010 OVC020 15/13 Q1021=",
        "recebimento": "2023-09-29 08:58:42"
    },
    {
        "id_localidade": "SBGR",
        "validade_inicial": "2023-09-29 10:00:00",
        "mens": "METAR SBGR 291000Z 11005KT 9999 BKN011 16/14 Q1022=",
        "recebimento": "2023-09-29 09:58:35"
    },
    {
        "id_localidade": "SBGR",
        "validade_inicial": "2023-09-29 11:00:00",
        "mens": "METAR SBGR 291100Z 08010KT 9999 BKN011 16/14 Q1022=",
        "recebimento": "2023-09-29 10:56:14"
    },
    {
        "id_localidade": "SBGR",
        "validade_inicial": "2023-09-29 12:00:00",
        "mens": "METAR SBGR 291200Z 07011KT 9999 BKN015 18/14 Q1022=",
        "recebimento": "2023-09-29 11:58:08"
    },
    {
        "id_localidade": "SBGR",
        "validade_inicial": "2023-09-29 13:00:00",
        "mens": "METAR SBGR 291300Z 06014KT 9999 BKN015 18/14 Q1022=",
        "recebimento": "2023-09-29 12:56:05"
    },
    {
        "id_localidade": "SBGR",
        "validade_inicial": "2023-09-29 14:00:00",
        "mens": "METAR SBGR 291400Z 08007KT 9999 BKN019 19/15 Q1022=",
        "recebimento": "2023-09-29 13:56:24"
    },
    {
        "id_localidade": "SBGR",
        "validade_inicial": "2023-09-29 15:00:00",
        "mens": "METAR SBGR 291500Z 12006KT 9999 BKN021 20/14 Q1021=",
        "recebimento": "2023-09-29 15:00:19"
    },
    {
        "id_localidade": "SBGR",
        "validade_inicial": "2023-09-29 16:00:00",
        "mens": "METAR SBGR 291600Z 10006KT 9999 BKN021 21/15 Q1021=",
        "recebimento": "2023-09-29 15:55:17"
    },
    {
        "id_localidade": "SBGR",
        "validade_inicial": "2023-09-29 17:00:00",
        "mens": "METAR SBGR 291700Z 14004KT 9999 BKN030 22/15 Q1020=",
        "recebimento": "2023-09-29 16:56:32"
    },
    {
        "id_localidade": "SBGR",
        "validade_inicial": "2023-09-29 18:00:00",
        "mens": "METAR SBGR 291800Z 13006KT 9999 BKN025 22/15 Q1020=",
        "recebimento": "2023-09-29 17:55:30"
    },
    {
        "id_localidade": "SBGR",
        "validade_inicial": "2023-09-29 19:00:00",
        "mens": "METAR SBGR 291900Z 15008KT 9999 BKN026 20/16 Q1020=",
        "recebimento": "2023-09-29 18:56:37"
    },
    {
        "id_localidade": "SBGR",
        "validade_inicial": "2023-09-29 20:00:00",
        "mens": "METAR SBGR 292000Z 15006KT 9999 FEW017 BKN021 19/16 Q1020=",
        "recebimento": "2023-09-29 19:58:23"
    },
    {
        "id_localidade": "SBGR",
        "validade_inicial": "2023-09-29 21:00:00",
        "mens": "METAR SBGR 292100Z 13006KT 9999 SCT015 OVC020 19/16 Q1020=",
        "recebimento": "2023-09-29 20:55:48"
    },
    {
        "id_localidade": "SBGR",
        "validade_inicial": "2023-09-29 22:00:00",
        "mens": "METAR SBGR 292200Z 12007KT 9999 BKN010 OVC020 18/15 Q1021=",
        "recebimento": "2023-09-29 21:59:34"
    },
    {
        "id_localidade": "SBGR",
        "validade_inicial": "2023-09-29 23:00:00",
        "mens": "METAR SBGR 292300Z 13007KT 9999 BKN009 OVC017 17/16 Q1021=",
        "recebimento": "2023-09-29 22:55:02"
    },
    {
        "id_localidade": "SBGR",
        "validade_inicial": "2023-09-30 00:00:00",
        "mens": "METAR SBGR 300000Z 11004KT 9999 OVC009 17/16 Q1021=",
        "recebimento": "2023-09-29 23:56:24"
    },
    {
        "id_localidade": "SBGR",
        "validade_inicial": "2023-09-30 01:00:00",
        "mens": "METAR SBGR 300100Z 11005KT 9999 OVC011 18/16 Q1021=",
        "recebimento": "2023-09-30 00:57:09"
    },
    {
        "id_localidade": "SBGR",
        "validade_inicial": "2023-09-30 02:00:00",
        "mens": "METAR SBGR 300200Z 08006KT 9999 OVC011 18/16 Q1021=",
        "recebimento": "2023-09-30 01:57:34"
    },
    {
        "id_localidade": "SBGR",
        "validade_inicial": "2023-09-30 03:00:00",
        "mens": "METAR SBGR 300300Z 07008KT 9999 OVC011 18/16 Q1020=",
        "recebimento": "2023-09-30 02:56:32"
    },
    {
        "id_localidade": "SBGR",
        "validade_inicial": "2023-09-30 04:00:00",
        "mens": "METAR SBGR 300400Z 07007KT 9999 OVC011 18/16 Q1020=",
        "recebimento": "2023-09-30 03:58:42"
    },
    {
        "id_localidade": "SBGR",
        "validade_inicial": "2023-09-30 05:00:00",
        "mens": "METAR SBGR 300500Z 07008KT 9999 OVC011 17/16 Q1019=",
        "recebimento": "2023-09-30 05:01:27"
    },
    {
        "id_localidade": "SBGR",
        "validade_inicial": "2023-09-30 06:00:00",
        "mens": "METAR SBGR 300600Z 07011KT 9999 OVC010 17/16 Q1018=",
        "recebimento": "2023-09-30 05:58:34"
    },
    {
        "id_localidade": "SBGR",
        "validade_inicial": "2023-09-30 07:00:00",
        "mens": "METAR SBGR 300700Z 07012KT 9999 OVC010 17/16 Q1018=",
        "recebimento": "2023-09-30 07:01:00"
    },
    {
        "id_localidade": "SBGR",
        "validade_inicial": "2023-09-30 08:00:00",
        "mens": "METAR SBGR 300800Z 06012KT 9999 OVC009 17/15 Q1018=",
        "recebimento": "2023-09-30 07:59:20"
    },
    {
        "id_localidade": "SBGR",
        "validade_inicial": "2023-09-30 09:00:00",
        "mens": "METAR SBGR 300900Z 06012KT 9000 OVC009 17/15 Q1019=",
        "recebimento": "2023-09-30 08:55:52"
    },
    {
        "id_localidade": "SBGR",
        "validade_inicial": "2023-09-30 10:00:00",
        "mens": "METAR SBGR 301000Z 06009KT 8000 OVC008 17/15 Q1019=",
        "recebimento": "2023-09-30 09:58:00"
    },
    {
        "id_localidade": "SBGR",
        "validade_inicial": "2023-09-30 11:00:00",
        "mens": "METAR SBGR 301100Z 06011KT 8000 OVC007 17/16 Q1020=",
        "recebimento": "2023-09-30 10:57:30"
    },
    {
        "id_localidade": "SBGR",
        "validade_inicial": "2023-09-30 12:00:00",
        "mens": "METAR SBGR 301200Z 06010KT 8000 OVC008 18/16 Q1019=",
        "recebimento": "2023-09-30 12:00:31"
    },
    {
        "id_localidade": "SBGR",
        "validade_inicial": "2023-09-30 13:00:00",
        "mens": "METAR SBGR 301300Z 08008KT 9999 OVC011 19/16 Q1020=",
        "recebimento": "2023-09-30 12:55:18"
    },
    {
        "id_localidade": "SBGR",
        "validade_inicial": "2023-09-30 14:00:00",
        "mens": "METAR SBGR 301400Z 06007KT 9999 BKN014 20/17 Q1019=",
        "recebimento": "2023-09-30 13:58:55"
    },
    {
        "id_localidade": "SBGR",
        "validade_inicial": "2023-09-30 14:20:00",
        "mens": "SPECI SBGR 301420Z 05006KT 9999 SCT017 22/17 Q1019=",
        "recebimento": "2023-09-30 14:20:39"
    },
    {
        "id_localidade": "SBGR",
        "validade_inicial": "2023-09-30 15:00:00",
        "mens": "METAR SBGR 301500Z 06007KT 9999 FEW020 24/18 Q1018=",
        "recebimento": "2023-09-30 14:57:44"
    },
    {
        "id_localidade": "SBGR",
        "validade_inicial": "2023-09-30 16:00:00",
        "mens": "METAR SBGR 301600Z 09006KT 9999 FEW020 25/17 Q1017=",
        "recebimento": "2023-09-30 15:56:58"
    },
    {
        "id_localidade": "SBGR",
        "validade_inicial": "2023-09-30 17:00:00",
        "mens": "METAR SBGR 301700Z 12006KT CAVOK 26/18 Q1016=",
        "recebimento": "2023-09-30 16:56:24"
    },
    {
        "id_localidade": "SBGR",
        "validade_inicial": "2023-09-30 18:00:00",
        "mens": "METAR SBGR 301800Z 08003KT CAVOK 28/18 Q1015=",
        "recebimento": "2023-09-30 17:56:43"
    },
    {
        "id_localidade": "SBGR",
        "validade_inicial": "2023-09-30 19:00:00",
        "mens": "METAR SBGR 301900Z 16012KT 6000 FEW030 FEW040TCU 24/19 Q1016=",
        "recebimento": "2023-09-30 18:59:29"
    },
    {
        "id_localidade": "SBGR",
        "validade_inicial": "2023-09-30 19:10:00",
        "mens": "SPECI SBGR 301910Z 17009KT 4000 RA SCT030 FEW040TCU 22/19 Q1016=",
        "recebimento": "2023-09-30 19:14:07"
    },
    {
        "id_localidade": "SBGR",
        "validade_inicial": "2023-09-30 20:00:00",
        "mens": "METAR SBGR 302000Z 16005KT 5000 BR BKN012 21/19 Q1016 RERA=",
        "recebimento": "2023-09-30 19:57:02"
    },
    {
        "id_localidade": "SBGR",
        "validade_inicial": "2023-09-30 21:00:00",
        "mens": "METAR SBGR 302100Z 14004KT 7000 OVC010 20/19 Q1017=",
        "recebimento": "2023-09-30 20:59:23"
    },
    {
        "id_localidade": "SBGR",
        "validade_inicial": "2023-09-30 22:00:00",
        "mens": "METAR SBGR 302200Z 09006KT 9999 OVC009 20/18 Q1017=",
        "recebimento": "2023-09-30 22:02:15"
    },
    {
        "id_localidade": "SBGR",
        "validade_inicial": "2023-09-30 23:00:00",
        "mens": "METAR SBGR 302300Z 13004KT 8000 OVC008 19/18 Q1017=",
        "recebimento": "2023-09-30 22:56:16"
    }
]